{
  "type": "FeatureCollection",
  "features": [
    {
      "type": "Feature",
      "geometry": {
        "type": "MultiPolygon",
        "coordinates": [
          [
            [
              [
                121.52851,
                -8.85581
              ],
              [
                121.50823,
                -8.88429
              ],
              [
                121.51624,
                -8.90704
              ],
              [
                121.53472,
                -8.88859
              ],
              [
                121.52851,
                -8.85581
              ]
            ]
          ],
          [
            [
              [
                122.00661,
                -8.51391
              ],
              [
                122.02403,
                -8.44021
              ],
              [
                121.98334,
                -8.44666
              ],
              [
                121.95585,
                -8.47331
              ],
              [
                121.95718,
                -8.44386
              ],
              [
                121.91304,
                -8.49573
              ],
              [
                121.87131,
                -8.49881
              ],
              [
                121.84364,
                -8.48203
              ],
              [
                121.80034,
                -8.51057
              ],
              [
                121.72565,
                -8.49448
              ],
              [
                121.68018,
                -8.51201
              ],
              [
                121.66552,
                -8.49379
              ],
              [
                121.64189,
                -8.49885
              ],
              [
                121.64464,
                -8.47866
              ],
              [
                121.61902,
                -8.47173
              ],
              [
                121.60264,
                -8.50686
              ],
              [
                121.61152,
                -8.55869
              ],
              [
                121.57033,
                -8.53089
              ],
              [
                121.57807,
                -8.57532
              ],
              [
                121.55318,
                -8.57596
              ],
              [
                121.53804,
                -8.6017
              ],
              [
                121.52573,
                -8.59571
              ],
              [
                121.51906,
                -8.63533
              ],
              [
                121.43231,
                -8.6706
              ],
              [
                121.39678,
                -8.71602
              ],
              [
                121.41658,
                -8.74425
              ],
              [
                121.41525,
                -8.7943
              ],
              [
                121.5869,
                -8.80289
              ],
              [
                121.64099,
                -8.83962
              ],
              [
                121.62494,
                -8.8928
              ],
              [
                121.64376,
                -8.90593
              ],
              [
                121.67283,
                -8.84765
              ],
              [
                121.77594,
                -8.88328
              ],
              [
                121.86102,
                -8.83525
              ],
              [
                121.99719,
                -8.80588
              ],
              [
                121.99049,
                -8.7552
              ],
              [
                121.95178,
                -8.75212
              ],
              [
                121.92615,
                -8.71062
              ],
              [
                121.95871,
                -8.67055
              ],
              [
                121.96264,
                -8.61617
              ],
              [
                121.98441,
                -8.60986
              ],
              [
                121.97681,
                -8.55062
              ],
              [
                122.00661,
                -8.51391
              ]
            ]
          ]
        ]
      },
      "properties": {
        "id": "reg-ende",
        "name": "Ende"
      }
    },
    {
      "type": "Feature",
      "geometry": {
        "type": "MultiPolygon",
        "coordinates": [
          [
            [
              [
                122.8463,
                -8.60463
              ],
              [
                122.84399,
                -8.6033
              ],
              [
                122.84399,
                -8.6033
              ],
              [
                122.8463,
                -8.60463
              ]
            ]
          ],
          [
            [
              [
                122.80218,
                -8.44654
              ],
              [
                122.79598,
                -8.4575
              ],
              [
                122.8043,
                -8.44872
              ],
              [
                122.80218,
                -8.44654
              ]
            ]
          ],
          [
            [
              [
                123.1462,
                -8.42414
              ],
              [
                123.02135,
                -8.44865
              ],
              [
                122.97634,
                -8.43628
              ],
              [
                122.94545,
                -8.49322
              ],
              [
                122.88518,
                -8.52398
              ],
              [
                122.87131,
                -8.58672
              ],
              [
                122.89123,
                -8.61119
              ],
              [
                122.92484,
                -8.60485
              ],
              [
                122.98347,
                -8.50656
              ],
              [
                123.0219,
                -8.47651
              ],
              [
                123.06522,
                -8.49152
              ],
              [
                123.14843,
                -8.46156
              ],
              [
                123.16826,
                -8.43645
              ],
              [
                123.1462,
                -8.42414
              ]
            ]
          ],
          [
            [
              [
                123.33238,
                -8.25623
              ],
              [
                123.32811,
                -8.24881
              ],
              [
                123.3286,
                -8.25374
              ],
              [
                123.33238,
                -8.25623
              ]
            ]
          ],
          [
            [
              [
                123.33782,
                -8.25639
              ],
              [
                123.33356,
                -8.24639
              ],
              [
                123.33509,
                -8.25575
              ],
              [
                123.33782,
                -8.25639
              ]
            ]
          ],
          [
            [
              [
                123.21136,
                -8.22544
              ],
              [
                123.18182,
                -8.24047
              ],
              [
                123.14198,
                -8.23377
              ],
              [
                123.03292,
                -8.30756
              ],
              [
                122.99902,
                -8.36806
              ],
              [
                123.0007,
                -8.41006
              ],
              [
                123.05318,
                -8.39828
              ],
              [
                123.06973,
                -8.4117
              ],
              [
                123.17902,
                -8.38515
              ],
              [
                123.29461,
                -8.38817
              ],
              [
                123.305,
                -8.29661
              ],
              [
                123.33382,
                -8.26433
              ],
              [
                123.27602,
                -8.25051
              ],
              [
                123.2432,
                -8.22552
              ],
              [
                123.21811,
                -8.24398
              ],
              [
                123.21136,
                -8.22544
              ]
            ]
          ],
          [
            [
              [
                122.65419,
                -8.63712
              ],
              [
                122.67741,
                -8.62211
              ],
              [
                122.72558,
                -8.63335
              ],
              [
                122.73723,
                -8.60838
              ],
              [
                122.77998,
                -8.61274
              ],
              [
                122.83112,
                -8.5897
              ],
              [
                122.84221,
                -8.5425
              ],
              [
                122.79024,
                -8.48427
              ],
              [
                122.78309,
                -8.42291
              ],
              [
                122.86023,
                -8.45272
              ],
              [
                122.88761,
                -8.4486
              ],
              [
                122.87843,
                -8.3844
              ],
              [
                122.91376,
                -8.32851
              ],
              [
                122.96449,
                -8.35192
              ],
              [
                123.01977,
                -8.31745
              ],
              [
                123.01842,
                -8.28136
              ],
              [
                122.98296,
                -8.25108
              ],
              [
                122.97959,
                -8.21506
              ],
              [
                122.95679,
                -8.19631
              ],
              [
                122.9729,
                -8.13484
              ],
              [
                122.86659,
                -8.06336
              ],
              [
                122.84426,
                -8.07021
              ],
              [
                122.83073,
                -8.09642
              ],
              [
                122.78266,
                -8.10786
              ],
              [
                122.78492,
                -8.15034
              ],
              [
                122.73228,
                -8.22695
              ],
              [
                122.78779,
                -8.23552
              ],
              [
                122.80909,
                -8.19826
              ],
              [
                122.86611,
                -8.17617
              ],
              [
                122.90076,
                -8.17589
              ],
              [
                122.9397,
                -8.19967
              ],
              [
                122.91228,
                -8.21751
              ],
              [
                122.88185,
                -8.28885
              ],
              [
                122.81107,
                -8.29791
              ],
              [
                122.76591,
                -8.36318
              ],
              [
                122.72391,
                -8.36035
              ],
              [
                122.68221,
                -8.38328
              ],
              [
                122.67342,
                -8.45971
              ],
              [
                122.68686,
                -8.48468
              ],
              [
                122.65565,
                -8.56233
              ],
              [
                122.65419,
                -8.63712
              ]
            ]
          ]
        ]
      },
      "properties": {
        "id": "reg-flores-timur",
        "name": "Flores Timur"
      }
    },
    {
      "type": "Feature",
      "geometry": {
        "type": "MultiPolygon",
        "coordinates": [
          [
            [
              [
                120.29601,
                -8.87246
              ],
              [
                120.27396,
                -8.87616
              ],
              [
                120.25956,
                -8.90691
              ],
              [
                120.27439,
                -8.91574
              ],
              [
                120.30584,
                -8.90058
              ],
              [
                120.29601,
                -8.87246
              ]
            ]
          ],
          [
            [
              [
                120.49278,
                -8.29268
              ],
              [
                120.45144,
                -8.2852
              ],
              [
                120.42865,
                -8.24092
              ],
              [
                120.40791,
                -8.2807
              ],
              [
                120.37075,
                -8.29352
              ],
              [
                120.29156,
                -8.28069
              ],
              [
                120.28403,
                -8.42261
              ],
              [
                120.30629,
                -8.45138
              ],
              [
                120.34588,
                -8.42614
              ],
              [
                120.38943,
                -8.42531
              ],
              [
                120.39909,
                -8.46094
              ],
              [
                120.37247,
                -8.51471
              ],
              [
                120.35237,
                -8.52439
              ],
              [
                120.36115,
                -8.56851
              ],
              [
                120.33041,
                -8.55875
              ],
              [
                120.28516,
                -8.59745
              ],
              [
                120.27985,
                -8.64788
              ],
              [
                120.33257,
                -8.694
              ],
              [
                120.31201,
                -8.73573
              ],
              [
                120.2719,
                -8.76211
              ],
              [
                120.28372,
                -8.78724
              ],
              [
                120.23286,
                -8.81255
              ],
              [
                120.233,
                -8.84426
              ],
              [
                120.31327,
                -8.85557
              ],
              [
                120.36873,
                -8.81631
              ],
              [
                120.39373,
                -8.82667
              ],
              [
                120.43793,
                -8.81361
              ],
              [
                120.51839,
                -8.8184
              ],
              [
                120.50145,
                -8.71862
              ],
              [
                120.46851,
                -8.67319
              ],
              [
                120.49198,
                -8.64498
              ],
              [
                120.5239,
                -8.63804
              ],
              [
                120.51046,
                -8.56512
              ],
              [
                120.54642,
                -8.49399
              ],
              [
                120.51352,
                -8.40891
              ],
              [
                120.47805,
                -8.38205
              ],
              [
                120.49278,
                -8.29268
              ]
            ]
          ]
        ]
      },
      "properties": {
        "id": "reg-manggarai",
        "name": "Manggarai"
      }
    },
    {
      "type": "Feature",
      "geometry": {
        "type": "MultiPolygon",
        "coordinates": [
          [
            [
              [
                119.78635,
                -8.79447
              ],
              [
                119.77076,
                -8.81846
              ],
              [
                119.78965,
                -8.82579
              ],
              [
                119.80302,
                -8.80087
              ],
              [
                119.78635,
                -8.79447
              ]
            ]
          ],
          [
            [
              [
                119.65501,
                -8.78432
              ],
              [
                119.63062,
                -8.80704
              ],
              [
                119.66728,
                -8.81672
              ],
              [
                119.65501,
                -8.78432
              ]
            ]
          ],
          [
            [
              [
                119.65903,
                -8.78437
              ],
              [
                119.65962,
                -8.78639
              ],
              [
                119.65962,
                -8.78639
              ],
              [
                119.65903,
                -8.78437
              ]
            ]
          ],
          [
            [
              [
                119.80094,
                -8.78442
              ],
              [
                119.79774,
                -8.78456
              ],
              [
                119.79774,
                -8.78456
              ],
              [
                119.80094,
                -8.78442
              ]
            ]
          ],
          [
            [
              [
                119.80743,
                -8.78202
              ],
              [
                119.80538,
                -8.78827
              ],
              [
                119.80718,
                -8.78562
              ],
              [
                119.80743,
                -8.78202
              ]
            ]
          ],
          [
            [
              [
                119.60402,
                -8.74789
              ],
              [
                119.60424,
                -8.74877
              ],
              [
                119.60424,
                -8.74877
              ],
              [
                119.60402,
                -8.74789
              ]
            ]
          ],
          [
            [
              [
                119.42538,
                -8.74415
              ],
              [
                119.42492,
                -8.7603
              ],
              [
                119.4271,
                -8.74626
              ],
              [
                119.42538,
                -8.74415
              ]
            ]
          ],
          [
            [
              [
                119.41158,
                -8.74191
              ],
              [
                119.41215,
                -8.74293
              ],
              [
                119.41215,
                -8.74293
              ],
              [
                119.41158,
                -8.74191
              ]
            ]
          ],
          [
            [
              [
                119.37469,
                -8.7388
              ],
              [
                119.36385,
                -8.7478
              ],
              [
                119.37347,
                -8.74302
              ],
              [
                119.37469,
                -8.7388
              ]
            ]
          ],
          [
            [
              [
                119.48175,
                -8.73873
              ],
              [
                119.4804,
                -8.73836
              ],
              [
                119.4804,
                -8.73836
              ],
              [
                119.48175,
                -8.73873
              ]
            ]
          ],
          [
            [
              [
                119.41113,
                -8.7391
              ],
              [
                119.40968,
                -8.73787
              ],
              [
                119.40968,
                -8.73787
              ],
              [
                119.41113,
                -8.7391
              ]
            ]
          ],
          [
            [
              [
                119.61467,
                -8.72589
              ],
              [
                119.61309,
                -8.7256
              ],
              [
                119.61309,
                -8.7256
              ],
              [
                119.61467,
                -8.72589
              ]
            ]
          ],
          [
            [
              [
                119.76646,
                -8.71396
              ],
              [
                119.76508,
                -8.7055
              ],
              [
                119.76495,
                -8.71206
              ],
              [
                119.76646,
                -8.71396
              ]
            ]
          ],
          [
            [
              [
                119.75438,
                -8.69629
              ],
              [
                119.75272,
                -8.69548
              ],
              [
                119.75272,
                -8.69548
              ],
              [
                119.75438,
                -8.69629
              ]
            ]
          ],
          [
            [
              [
                119.54115,
                -8.68825
              ],
              [
                119.53265,
                -8.69297
              ],
              [
                119.53916,
                -8.6888
              ],
              [
                119.54115,
                -8.68825
              ]
            ]
          ],
          [
            [
              [
                119.57236,
                -8.68589
              ],
              [
                119.569,
                -8.69307
              ],
              [
                119.5703,
                -8.69002
              ],
              [
                119.57236,
                -8.68589
              ]
            ]
          ],
          [
            [
              [
                119.47195,
                -8.68733
              ],
              [
                119.46935,
                -8.68904
              ],
              [
                119.47354,
                -8.69045
              ],
              [
                119.47195,
                -8.68733
              ]
            ]
          ],
          [
            [
              [
                119.65067,
                -8.68467
              ],
              [
                119.64693,
                -8.68803
              ],
              [
                119.65063,
                -8.68744
              ],
              [
                119.65067,
                -8.68467
              ]
            ]
          ],
          [
            [
              [
                119.54398,
                -8.68051
              ],
              [
                119.54371,
                -8.68159
              ],
              [
                119.54371,
                -8.68159
              ],
              [
                119.54398,
                -8.68051
              ]
            ]
          ],
          [
            [
              [
                119.53348,
                -8.67821
              ],
              [
                119.53241,
                -8.67829
              ],
              [
                119.53241,
                -8.67829
              ],
              [
                119.53348,
                -8.67821
              ]
            ]
          ],
          [
            [
              [
                119.53338,
                -8.66859
              ],
              [
                119.53323,
                -8.67046
              ],
              [
                119.53323,
                -8.67046
              ],
              [
                119.53338,
                -8.66859
              ]
            ]
          ],
          [
            [
              [
                119.77649,
                -8.66862
              ],
              [
                119.78232,
                -8.67562
              ],
              [
                119.77872,
                -8.66778
              ],
              [
                119.77649,
                -8.66862
              ]
            ]
          ],
          [
            [
              [
                119.57069,
                -8.64941
              ],
              [
                119.57001,
                -8.65202
              ],
              [
                119.57176,
                -8.65109
              ],
              [
                119.57069,
                -8.64941
              ]
            ]
          ],
          [
            [
              [
                119.49549,
                -8.64705
              ],
              [
                119.49613,
                -8.65059
              ],
              [
                119.49738,
                -8.64817
              ],
              [
                119.49549,
                -8.64705
              ]
            ]
          ],
          [
            [
              [
                119.62322,
                -8.63892
              ],
              [
                119.6217,
                -8.63799
              ],
              [
                119.6217,
                -8.63799
              ],
              [
                119.62322,
                -8.63892
              ]
            ]
          ],
          [
            [
              [
                119.39606,
                -8.63731
              ],
              [
                119.39473,
                -8.6361
              ],
              [
                119.39473,
                -8.6361
              ],
              [
                119.39606,
                -8.63731
              ]
            ]
          ],
          [
            [
              [
                119.71123,
                -8.63478
              ],
              [
                119.71001,
                -8.63397
              ],
              [
                119.71001,
                -8.63397
              ],
              [
                119.71123,
                -8.63478
              ]
            ]
          ],
          [
            [
              [
                119.60127,
                -8.63125
              ],
              [
                119.54048,
                -8.66249
              ],
              [
                119.54046,
                -8.67834
              ],
              [
                119.56434,
                -8.69196
              ],
              [
                119.55816,
                -8.66566
              ],
              [
                119.60205,
                -8.65981
              ],
              [
                119.60127,
                -8.63125
              ]
            ]
          ],
          [
            [
              [
                119.7075,
                -8.62813
              ],
              [
                119.70598,
                -8.63068
              ],
              [
                119.71033,
                -8.63045
              ],
              [
                119.7075,
                -8.62813
              ]
            ]
          ],
          [
            [
              [
                119.61437,
                -8.62616
              ],
              [
                119.61937,
                -8.63584
              ],
              [
                119.61875,
                -8.62717
              ],
              [
                119.61437,
                -8.62616
              ]
            ]
          ],
          [
            [
              [
                119.52595,
                -8.62298
              ],
              [
                119.53043,
                -8.62418
              ],
              [
                119.52734,
                -8.62396
              ],
              [
                119.52595,
                -8.62298
              ]
            ]
          ],
          [
            [
              [
                119.47186,
                -8.61839
              ],
              [
                119.46577,
                -8.61978
              ],
              [
                119.47135,
                -8.62104
              ],
              [
                119.47186,
                -8.61839
              ]
            ]
          ],
          [
            [
              [
                119.47463,
                -8.61764
              ],
              [
                119.47389,
                -8.61691
              ],
              [
                119.47389,
                -8.61691
              ],
              [
                119.47463,
                -8.61764
              ]
            ]
          ],
          [
            [
              [
                119.52111,
                -8.61538
              ],
              [
                119.51923,
                -8.61718
              ],
              [
                119.51923,
                -8.61718
              ],
              [
                119.52111,
                -8.61538
              ]
            ]
          ],
          [
            [
              [
                119.7224,
                -8.61616
              ],
              [
                119.71905,
                -8.61255
              ],
              [
                119.71951,
                -8.61581
              ],
              [
                119.7224,
                -8.61616
              ]
            ]
          ],
          [
            [
              [
                119.52977,
                -8.60586
              ],
              [
                119.52599,
                -8.61579
              ],
              [
                119.53378,
                -8.60729
              ],
              [
                119.52977,
                -8.60586
              ]
            ]
          ],
          [
            [
              [
                119.77038,
                -8.60674
              ],
              [
                119.76688,
                -8.60376
              ],
              [
                119.76748,
                -8.60606
              ],
              [
                119.77038,
                -8.60674
              ]
            ]
          ],
          [
            [
              [
                119.63475,
                -8.60534
              ],
              [
                119.61442,
                -8.60969
              ],
              [
                119.64194,
                -8.65899
              ],
              [
                119.62412,
                -8.68178
              ],
              [
                119.63887,
                -8.68895
              ],
              [
                119.65257,
                -8.6688
              ],
              [
                119.66122,
                -8.70133
              ],
              [
                119.61749,
                -8.70768
              ],
              [
                119.63698,
                -8.72483
              ],
              [
                119.61562,
                -8.72495
              ],
              [
                119.63343,
                -8.74178
              ],
              [
                119.60575,
                -8.73349
              ],
              [
                119.60349,
                -8.75451
              ],
              [
                119.618,
                -8.79412
              ],
              [
                119.65933,
                -8.77315
              ],
              [
                119.6756,
                -8.80892
              ],
              [
                119.69373,
                -8.81047
              ],
              [
                119.73338,
                -8.7668
              ],
              [
                119.71656,
                -8.76386
              ],
              [
                119.73349,
                -8.75663
              ],
              [
                119.72337,
                -8.74031
              ],
              [
                119.68991,
                -8.72311
              ],
              [
                119.71088,
                -8.67939
              ],
              [
                119.72566,
                -8.69938
              ],
              [
                119.74496,
                -8.69856
              ],
              [
                119.75748,
                -8.6654
              ],
              [
                119.79899,
                -8.65701
              ],
              [
                119.80498,
                -8.62533
              ],
              [
                119.7924,
                -8.6141
              ],
              [
                119.7187,
                -8.62141
              ],
              [
                119.71454,
                -8.65579
              ],
              [
                119.68729,
                -8.63943
              ],
              [
                119.70816,
                -8.6698
              ],
              [
                119.68568,
                -8.68482
              ],
              [
                119.67755,
                -8.67294
              ],
              [
                119.67362,
                -8.68777
              ],
              [
                119.65849,
                -8.65693
              ],
              [
                119.66281,
                -8.61243
              ],
              [
                119.63475,
                -8.60534
              ]
            ]
          ],
          [
            [
              [
                119.79496,
                -8.60223
              ],
              [
                119.79231,
                -8.60272
              ],
              [
                119.79231,
                -8.60272
              ],
              [
                119.79496,
                -8.60223
              ]
            ]
          ],
          [
            [
              [
                119.70544,
                -8.6013
              ],
              [
                119.70459,
                -8.60044
              ],
              [
                119.70459,
                -8.60044
              ],
              [
                119.70544,
                -8.6013
              ]
            ]
          ],
          [
            [
              [
                119.49452,
                -8.59775
              ],
              [
                119.49699,
                -8.60132
              ],
              [
                119.49763,
                -8.59955
              ],
              [
                119.49452,
                -8.59775
              ]
            ]
          ],
          [
            [
              [
                119.76733,
                -8.60022
              ],
              [
                119.76718,
                -8.59701
              ],
              [
                119.76612,
                -8.59863
              ],
              [
                119.76733,
                -8.60022
              ]
            ]
          ],
          [
            [
              [
                119.69891,
                -8.59911
              ],
              [
                119.70004,
                -8.59493
              ],
              [
                119.69804,
                -8.59661
              ],
              [
                119.69891,
                -8.59911
              ]
            ]
          ],
          [
            [
              [
                119.79591,
                -8.59869
              ],
              [
                119.78989,
                -8.59938
              ],
              [
                119.79494,
                -8.60042
              ],
              [
                119.79591,
                -8.59869
              ]
            ]
          ],
          [
            [
              [
                119.75828,
                -8.59104
              ],
              [
                119.75642,
                -8.59423
              ],
              [
                119.75782,
                -8.59365
              ],
              [
                119.75828,
                -8.59104
              ]
            ]
          ],
          [
            [
              [
                119.72671,
                -8.59167
              ],
              [
                119.7252,
                -8.59062
              ],
              [
                119.7252,
                -8.59062
              ],
              [
                119.72671,
                -8.59167
              ]
            ]
          ],
          [
            [
              [
                119.69455,
                -8.58853
              ],
              [
                119.69391,
                -8.58441
              ],
              [
                119.69074,
                -8.58784
              ],
              [
                119.69455,
                -8.58853
              ]
            ]
          ],
          [
            [
              [
                119.80265,
                -8.57992
              ],
              [
                119.79896,
                -8.58546
              ],
              [
                119.80407,
                -8.58172
              ],
              [
                119.80265,
                -8.57992
              ]
            ]
          ],
          [
            [
              [
                119.68976,
                -8.57884
              ],
              [
                119.69328,
                -8.58321
              ],
              [
                119.69343,
                -8.57831
              ],
              [
                119.68976,
                -8.57884
              ]
            ]
          ],
          [
            [
              [
                119.74955,
                -8.57435
              ],
              [
                119.74982,
                -8.58193
              ],
              [
                119.75191,
                -8.57682
              ],
              [
                119.74955,
                -8.57435
              ]
            ]
          ],
          [
            [
              [
                119.72728,
                -8.56899
              ],
              [
                119.71084,
                -8.57809
              ],
              [
                119.72909,
                -8.57339
              ],
              [
                119.72728,
                -8.56899
              ]
            ]
          ],
          [
            [
              [
                119.37186,
                -8.55862
              ],
              [
                119.37133,
                -8.56001
              ],
              [
                119.37286,
                -8.55909
              ],
              [
                119.37186,
                -8.55862
              ]
            ]
          ],
          [
            [
              [
                119.62799,
                -8.55498
              ],
              [
                119.63166,
                -8.55652
              ],
              [
                119.63166,
                -8.55652
              ],
              [
                119.62799,
                -8.55498
              ]
            ]
          ],
          [
            [
              [
                119.38825,
                -8.55225
              ],
              [
                119.39138,
                -8.55378
              ],
              [
                119.38922,
                -8.55402
              ],
              [
                119.38825,
                -8.55225
              ]
            ]
          ],
          [
            [
              [
                119.82729,
                -8.55152
              ],
              [
                119.82707,
                -8.55269
              ],
              [
                119.82832,
                -8.55179
              ],
              [
                119.82729,
                -8.55152
              ]
            ]
          ],
          [
            [
              [
                119.80325,
                -8.5519
              ],
              [
                119.80061,
                -8.54882
              ],
              [
                119.79968,
                -8.55074
              ],
              [
                119.80325,
                -8.5519
              ]
            ]
          ],
          [
            [
              [
                119.68433,
                -8.54728
              ],
              [
                119.68356,
                -8.55441
              ],
              [
                119.68974,
                -8.54766
              ],
              [
                119.68433,
                -8.54728
              ]
            ]
          ],
          [
            [
              [
                119.78565,
                -8.55264
              ],
              [
                119.78527,
                -8.54589
              ],
              [
                119.7828,
                -8.55081
              ],
              [
                119.78565,
                -8.55264
              ]
            ]
          ],
          [
            [
              [
                119.69128,
                -8.54492
              ],
              [
                119.68998,
                -8.55076
              ],
              [
                119.69247,
                -8.54975
              ],
              [
                119.69128,
                -8.54492
              ]
            ]
          ],
          [
            [
              [
                119.81531,
                -8.54963
              ],
              [
                119.81452,
                -8.54464
              ],
              [
                119.8136,
                -8.54767
              ],
              [
                119.81531,
                -8.54963
              ]
            ]
          ],
          [
            [
              [
                119.56862,
                -8.54303
              ],
              [
                119.56479,
                -8.54241
              ],
              [
                119.56479,
                -8.54241
              ],
              [
                119.56862,
                -8.54303
              ]
            ]
          ],
          [
            [
              [
                119.83197,
                -8.54299
              ],
              [
                119.82751,
                -8.5429
              ],
              [
                119.82955,
                -8.54478
              ],
              [
                119.83197,
                -8.54299
              ]
            ]
          ],
          [
            [
              [
                119.64253,
                -8.54379
              ],
              [
                119.64117,
                -8.53839
              ],
              [
                119.64076,
                -8.54135
              ],
              [
                119.64253,
                -8.54379
              ]
            ]
          ],
          [
            [
              [
                119.5707,
                -8.53473
              ],
              [
                119.57234,
                -8.54159
              ],
              [
                119.57407,
                -8.53399
              ],
              [
                119.5707,
                -8.53473
              ]
            ]
          ],
          [
            [
              [
                119.66002,
                -8.53183
              ],
              [
                119.64668,
                -8.53576
              ],
              [
                119.65821,
                -8.56738
              ],
              [
                119.66002,
                -8.53183
              ]
            ]
          ],
          [
            [
              [
                119.74666,
                -8.52913
              ],
              [
                119.74464,
                -8.5253
              ],
              [
                119.7448,
                -8.52863
              ],
              [
                119.74666,
                -8.52913
              ]
            ]
          ],
          [
            [
              [
                119.79018,
                -8.52196
              ],
              [
                119.78405,
                -8.53041
              ],
              [
                119.79846,
                -8.53033
              ],
              [
                119.79018,
                -8.52196
              ]
            ]
          ],
          [
            [
              [
                119.73627,
                -8.52438
              ],
              [
                119.73475,
                -8.51921
              ],
              [
                119.73412,
                -8.52175
              ],
              [
                119.73627,
                -8.52438
              ]
            ]
          ],
          [
            [
              [
                119.58667,
                -8.51991
              ],
              [
                119.5855,
                -8.51829
              ],
              [
                119.5855,
                -8.51829
              ],
              [
                119.58667,
                -8.51991
              ]
            ]
          ],
          [
            [
              [
                119.71259,
                -8.51918
              ],
              [
                119.71063,
                -8.51824
              ],
              [
                119.71063,
                -8.51824
              ],
              [
                119.71259,
                -8.51918
              ]
            ]
          ],
          [
            [
              [
                119.79409,
                -8.52156
              ],
              [
                119.79467,
                -8.51608
              ],
              [
                119.79223,
                -8.5189
              ],
              [
                119.79409,
                -8.52156
              ]
            ]
          ],
          [
            [
              [
                119.72862,
                -8.51412
              ],
              [
                119.72539,
                -8.51847
              ],
              [
                119.72988,
                -8.51535
              ],
              [
                119.72862,
                -8.51412
              ]
            ]
          ],
          [
            [
              [
                119.64046,
                -8.51029
              ],
              [
                119.63838,
                -8.51786
              ],
              [
                119.64292,
                -8.51295
              ],
              [
                119.64046,
                -8.51029
              ]
            ]
          ],
          [
            [
              [
                119.70637,
                -8.51129
              ],
              [
                119.70364,
                -8.51554
              ],
              [
                119.70964,
                -8.51271
              ],
              [
                119.70637,
                -8.51129
              ]
            ]
          ],
          [
            [
              [
                119.73058,
                -8.51086
              ],
              [
                119.72767,
                -8.51195
              ],
              [
                119.73229,
                -8.51064
              ],
              [
                119.73058,
                -8.51086
              ]
            ]
          ],
          [
            [
              [
                119.34475,
                -8.50937
              ],
              [
                119.3437,
                -8.50744
              ],
              [
                119.3437,
                -8.50744
              ],
              [
                119.34475,
                -8.50937
              ]
            ]
          ],
          [
            [
              [
                119.86852,
                -8.4966
              ],
              [
                119.86755,
                -8.49553
              ],
              [
                119.86755,
                -8.49553
              ],
              [
                119.86852,
                -8.4966
              ]
            ]
          ],
          [
            [
              [
                119.7291,
                -8.49411
              ],
              [
                119.72041,
                -8.51059
              ],
              [
                119.73347,
                -8.49779
              ],
              [
                119.7291,
                -8.49411
              ]
            ]
          ],
          [
            [
              [
                119.58168,
                -8.4928
              ],
              [
                119.5785,
                -8.49825
              ],
              [
                119.5836,
                -8.49557
              ],
              [
                119.58168,
                -8.4928
              ]
            ]
          ],
          [
            [
              [
                119.75646,
                -8.49166
              ],
              [
                119.76083,
                -8.49408
              ],
              [
                119.75844,
                -8.49171
              ],
              [
                119.75646,
                -8.49166
              ]
            ]
          ],
          [
            [
              [
                119.84766,
                -8.48768
              ],
              [
                119.84482,
                -8.48986
              ],
              [
                119.84988,
                -8.48787
              ],
              [
                119.84766,
                -8.48768
              ]
            ]
          ],
          [
            [
              [
                119.58877,
                -8.49187
              ],
              [
                119.58695,
                -8.48612
              ],
              [
                119.58582,
                -8.48906
              ],
              [
                119.58877,
                -8.49187
              ]
            ]
          ],
          [
            [
              [
                119.86362,
                -8.48545
              ],
              [
                119.86926,
                -8.49318
              ],
              [
                119.86783,
                -8.48444
              ],
              [
                119.86362,
                -8.48545
              ]
            ]
          ],
          [
            [
              [
                119.86189,
                -8.487
              ],
              [
                119.85186,
                -8.48863
              ],
              [
                119.85775,
                -8.48819
              ],
              [
                119.86189,
                -8.487
              ]
            ]
          ],
          [
            [
              [
                119.83784,
                -8.48035
              ],
              [
                119.83951,
                -8.48429
              ],
              [
                119.8402,
                -8.48066
              ],
              [
                119.83784,
                -8.48035
              ]
            ]
          ],
          [
            [
              [
                119.86866,
                -8.46891
              ],
              [
                119.8655,
                -8.46486
              ],
              [
                119.86488,
                -8.46759
              ],
              [
                119.86866,
                -8.46891
              ]
            ]
          ],
          [
            [
              [
                119.8688,
                -8.46309
              ],
              [
                119.87075,
                -8.4642
              ],
              [
                119.87048,
                -8.46265
              ],
              [
                119.8688,
                -8.46309
              ]
            ]
          ],
          [
            [
              [
                119.563,
                -8.46193
              ],
              [
                119.5561,
                -8.47521
              ],
              [
                119.56593,
                -8.46428
              ],
              [
                119.563,
                -8.46193
              ]
            ]
          ],
          [
            [
              [
                119.58371,
                -8.4455
              ],
              [
                119.56441,
                -8.4456
              ],
              [
                119.5625,
                -8.45953
              ],
              [
                119.58371,
                -8.4455
              ]
            ]
          ],
          [
            [
              [
                119.89096,
                -8.4408
              ],
              [
                119.88991,
                -8.44016
              ],
              [
                119.88991,
                -8.44016
              ],
              [
                119.89096,
                -8.4408
              ]
            ]
          ],
          [
            [
              [
                119.99323,
                -8.43344
              ],
              [
                119.98975,
                -8.43821
              ],
              [
                119.99489,
                -8.43852
              ],
              [
                119.99323,
                -8.43344
              ]
            ]
          ],
          [
            [
              [
                119.45699,
                -8.4285
              ],
              [
                119.45067,
                -8.45204
              ],
              [
                119.4203,
                -8.44905
              ],
              [
                119.44915,
                -8.49093
              ],
              [
                119.41244,
                -8.5022
              ],
              [
                119.43696,
                -8.5248
              ],
              [
                119.4211,
                -8.52966
              ],
              [
                119.42343,
                -8.55158
              ],
              [
                119.38978,
                -8.55937
              ],
              [
                119.37374,
                -8.58524
              ],
              [
                119.38851,
                -8.60069
              ],
              [
                119.37335,
                -8.63072
              ],
              [
                119.39772,
                -8.62232
              ],
              [
                119.40979,
                -8.64686
              ],
              [
                119.40444,
                -8.68824
              ],
              [
                119.37126,
                -8.71739
              ],
              [
                119.37704,
                -8.7377
              ],
              [
                119.40631,
                -8.72202
              ],
              [
                119.44377,
                -8.75118
              ],
              [
                119.47137,
                -8.73721
              ],
              [
                119.45168,
                -8.74497
              ],
              [
                119.45622,
                -8.70251
              ],
              [
                119.43317,
                -8.67576
              ],
              [
                119.45642,
                -8.64816
              ],
              [
                119.47617,
                -8.65215
              ],
              [
                119.49369,
                -8.61444
              ],
              [
                119.46487,
                -8.62784
              ],
              [
                119.45299,
                -8.60634
              ],
              [
                119.47982,
                -8.60539
              ],
              [
                119.50533,
                -8.56852
              ],
              [
                119.52482,
                -8.58217
              ],
              [
                119.51852,
                -8.60217
              ],
              [
                119.57426,
                -8.5953
              ],
              [
                119.55962,
                -8.58675
              ],
              [
                119.54919,
                -8.52989
              ],
              [
                119.56004,
                -8.51416
              ],
              [
                119.56982,
                -8.53234
              ],
              [
                119.57119,
                -8.48956
              ],
              [
                119.54953,
                -8.49888
              ],
              [
                119.55217,
                -8.47897
              ],
              [
                119.53489,
                -8.49736
              ],
              [
                119.52637,
                -8.48246
              ],
              [
                119.50687,
                -8.49404
              ],
              [
                119.47087,
                -8.48028
              ],
              [
                119.45699,
                -8.4285
              ]
            ]
          ],
          [
            [
              [
                119.86768,
                -8.4123
              ],
              [
                119.87273,
                -8.41774
              ],
              [
                119.87346,
                -8.41295
              ],
              [
                119.86768,
                -8.4123
              ]
            ]
          ],
          [
            [
              [
                119.81223,
                -8.39934
              ],
              [
                119.80361,
                -8.39716
              ],
              [
                119.81197,
                -8.4006
              ],
              [
                119.81223,
                -8.39934
              ]
            ]
          ],
          [
            [
              [
                119.79836,
                -8.39257
              ],
              [
                119.79617,
                -8.38908
              ],
              [
                119.79617,
                -8.38908
              ],
              [
                119.79836,
                -8.39257
              ]
            ]
          ],
          [
            [
              [
                120.04723,
                -8.38745
              ],
              [
                120.04502,
                -8.38724
              ],
              [
                120.04779,
                -8.38851
              ],
              [
                120.04723,
                -8.38745
              ]
            ]
          ],
          [
            [
              [
                119.85786,
                -8.37961
              ],
              [
                119.83773,
                -8.38637
              ],
              [
                119.86598,
                -8.40168
              ],
              [
                119.87746,
                -8.37994
              ],
              [
                119.85786,
                -8.37961
              ]
            ]
          ],
          [
            [
              [
                120.08045,
                -8.37009
              ],
              [
                120.08057,
                -8.36823
              ],
              [
                120.07957,
                -8.36934
              ],
              [
                120.08045,
                -8.37009
              ]
            ]
          ],
          [
            [
              [
                120.03234,
                -8.35953
              ],
              [
                120.02223,
                -8.35222
              ],
              [
                120.01643,
                -8.37248
              ],
              [
                120.03234,
                -8.35953
              ]
            ]
          ],
          [
            [
              [
                120.13204,
                -8.33884
              ],
              [
                120.11206,
                -8.34551
              ],
              [
                120.15392,
                -8.35111
              ],
              [
                120.13204,
                -8.33884
              ]
            ]
          ],
          [
            [
              [
                120.29156,
                -8.28069
              ],
              [
                120.20051,
                -8.30561
              ],
              [
                120.16302,
                -8.37793
              ],
              [
                120.12144,
                -8.3563
              ],
              [
                120.12557,
                -8.41762
              ],
              [
                120.1098,
                -8.44133
              ],
              [
                120.08506,
                -8.4373
              ],
              [
                120.09612,
                -8.41316
              ],
              [
                120.07722,
                -8.41058
              ],
              [
                120.08651,
                -8.38761
              ],
              [
                120.05,
                -8.40525
              ],
              [
                120.07476,
                -8.37695
              ],
              [
                120.04303,
                -8.39749
              ],
              [
                120.01918,
                -8.38408
              ],
              [
                120.01546,
                -8.41296
              ],
              [
                119.99792,
                -8.41716
              ],
              [
                120.01826,
                -8.4397
              ],
              [
                119.99742,
                -8.46135
              ],
              [
                119.96939,
                -8.42805
              ],
              [
                119.96173,
                -8.45065
              ],
              [
                119.9075,
                -8.47555
              ],
              [
                119.8773,
                -8.45892
              ],
              [
                119.89024,
                -8.44298
              ],
              [
                119.8773,
                -8.44289
              ],
              [
                119.88004,
                -8.42701
              ],
              [
                119.85758,
                -8.4299
              ],
              [
                119.87939,
                -8.49829
              ],
              [
                119.86784,
                -8.52413
              ],
              [
                119.80509,
                -8.57071
              ],
              [
                119.81129,
                -8.66836
              ],
              [
                119.79568,
                -8.69156
              ],
              [
                119.80754,
                -8.73337
              ],
              [
                119.7962,
                -8.74169
              ],
              [
                119.83334,
                -8.80658
              ],
              [
                119.84417,
                -8.79693
              ],
              [
                119.89024,
                -8.8127
              ],
              [
                119.88951,
                -8.85886
              ],
              [
                119.91917,
                -8.86589
              ],
              [
                119.90976,
                -8.83908
              ],
              [
                119.92271,
                -8.84364
              ],
              [
                119.9445,
                -8.82064
              ],
              [
                120.01638,
                -8.81928
              ],
              [
                120.14855,
                -8.78471
              ],
              [
                120.22815,
                -8.84151
              ],
              [
                120.24018,
                -8.80291
              ],
              [
                120.28372,
                -8.78724
              ],
              [
                120.2719,
                -8.76211
              ],
              [
                120.31201,
                -8.73573
              ],
              [
                120.33257,
                -8.694
              ],
              [
                120.27985,
                -8.64788
              ],
              [
                120.28516,
                -8.59745
              ],
              [
                120.33041,
                -8.55875
              ],
              [
                120.36115,
                -8.56851
              ],
              [
                120.35237,
                -8.52439
              ],
              [
                120.37247,
                -8.51471
              ],
              [
                120.39909,
                -8.46094
              ],
              [
                120.38943,
                -8.42531
              ],
              [
                120.34588,
                -8.42614
              ],
              [
                120.30629,
                -8.45138
              ],
              [
                120.28403,
                -8.42261
              ],
              [
                120.29156,
                -8.28069
              ]
            ]
          ]
        ]
      },
      "properties": {
        "id": "reg-manggarai-barat",
        "name": "Manggarai Barat"
      }
    },
    {
      "type": "Feature",
      "geometry": {
        "type": "Polygon",
        "coordinates": [
          [
            [
              120.51839,
              -8.8184
            ],
            [
              120.59693,
              -8.81537
            ],
            [
              120.64633,
              -8.86713
            ],
            [
              120.74597,
              -8.89318
            ],
            [
              120.7745,
              -8.88686
            ],
            [
              120.78897,
              -8.8405
            ],
            [
              120.82018,
              -8.8379
            ],
            [
              120.81126,
              -8.82556
            ],
            [
              120.85637,
              -8.74739
            ],
            [
              120.84446,
              -8.70903
            ],
            [
              120.87497,
              -8.697
            ],
            [
              120.89138,
              -8.65017
            ],
            [
              120.86051,
              -8.57309
            ],
            [
              120.87431,
              -8.56335
            ],
            [
              120.84536,
              -8.51526
            ],
            [
              120.88143,
              -8.47803
            ],
            [
              120.92232,
              -8.47256
            ],
            [
              120.91264,
              -8.44362
            ],
            [
              120.94971,
              -8.37647
            ],
            [
              120.93999,
              -8.34836
            ],
            [
              120.89305,
              -8.35323
            ],
            [
              120.88359,
              -8.37199
            ],
            [
              120.88212,
              -8.34941
            ],
            [
              120.85445,
              -8.35766
            ],
            [
              120.76243,
              -8.33624
            ],
            [
              120.73358,
              -8.34888
            ],
            [
              120.59371,
              -8.25436
            ],
            [
              120.60529,
              -8.27734
            ],
            [
              120.59081,
              -8.29711
            ],
            [
              120.5583,
              -8.30022
            ],
            [
              120.53006,
              -8.27235
            ],
            [
              120.49278,
              -8.29268
            ],
            [
              120.47805,
              -8.38205
            ],
            [
              120.51352,
              -8.40891
            ],
            [
              120.54642,
              -8.49399
            ],
            [
              120.51046,
              -8.56512
            ],
            [
              120.5239,
              -8.63804
            ],
            [
              120.49198,
              -8.64498
            ],
            [
              120.46851,
              -8.67319
            ],
            [
              120.50145,
              -8.71862
            ],
            [
              120.51839,
              -8.8184
            ]
          ]
        ]
      },
      "properties": {
        "id": "reg-manggarai-timur",
        "name": "Manggarai Timur"
      }
    },
    {
      "type": "Feature",
      "geometry": {
        "type": "Polygon",
        "coordinates": [
          [
            [
              121.52032,
              -8.61425
            ],
            [
              121.50558,
              -8.61422
            ],
            [
              121.50035,
              -8.5778
            ],
            [
              121.46538,
              -8.56119
            ],
            [
              121.41844,
              -8.59205
            ],
            [
              121.40446,
              -8.57175
            ],
            [
              121.3438,
              -8.54716
            ],
            [
              121.30781,
              -8.48161
            ],
            [
              121.1732,
              -8.44071
            ],
            [
              121.17985,
              -8.45937
            ],
            [
              121.16159,
              -8.47786
            ],
            [
              121.18403,
              -8.51157
            ],
            [
              121.14231,
              -8.55348
            ],
            [
              121.12775,
              -8.64294
            ],
            [
              121.1074,
              -8.67867
            ],
            [
              121.14952,
              -8.69381
            ],
            [
              121.10493,
              -8.72223
            ],
            [
              121.09596,
              -8.75938
            ],
            [
              121.14014,
              -8.84313
            ],
            [
              121.11518,
              -8.87484
            ],
            [
              121.13928,
              -8.89802
            ],
            [
              121.18355,
              -8.88536
            ],
            [
              121.2571,
              -8.89763
            ],
            [
              121.26914,
              -8.88645
            ],
            [
              121.29926,
              -8.90756
            ],
            [
              121.34211,
              -8.90529
            ],
            [
              121.3689,
              -8.87851
            ],
            [
              121.37727,
              -8.79669
            ],
            [
              121.41424,
              -8.79378
            ],
            [
              121.41658,
              -8.74425
            ],
            [
              121.39678,
              -8.71602
            ],
            [
              121.43231,
              -8.6706
            ],
            [
              121.51906,
              -8.63533
            ],
            [
              121.52032,
              -8.61425
            ]
          ]
        ]
      },
      "properties": {
        "id": "reg-nagekeo",
        "name": "Nagekeo"
      }
    },
    {
      "type": "Feature",
      "geometry": {
        "type": "Polygon",
        "coordinates": [
          [
            [
              120.81906,
              -8.83586
            ],
            [
              120.84847,
              -8.83394
            ],
            [
              120.86927,
              -8.88355
            ],
            [
              120.93115,
              -8.93289
            ],
            [
              121.00126,
              -8.95608
            ],
            [
              121.05737,
              -8.94771
            ],
            [
              121.13805,
              -8.90244
            ],
            [
              121.11518,
              -8.87484
            ],
            [
              121.13961,
              -8.84048
            ],
            [
              121.09596,
              -8.75938
            ],
            [
              121.10493,
              -8.72223
            ],
            [
              121.14952,
              -8.69381
            ],
            [
              121.1074,
              -8.67867
            ],
            [
              121.12775,
              -8.64294
            ],
            [
              121.14231,
              -8.55348
            ],
            [
              121.18403,
              -8.51157
            ],
            [
              121.16159,
              -8.47786
            ],
            [
              121.17985,
              -8.45937
            ],
            [
              121.1732,
              -8.44071
            ],
            [
              121.14285,
              -8.42453
            ],
            [
              121.02362,
              -8.41409
            ],
            [
              121.01028,
              -8.39206
            ],
            [
              120.96359,
              -8.37057
            ],
            [
              120.98403,
              -8.34944
            ],
            [
              120.94451,
              -8.34413
            ],
            [
              120.95632,
              -8.36908
            ],
            [
              120.91264,
              -8.44362
            ],
            [
              120.92232,
              -8.47256
            ],
            [
              120.88143,
              -8.47803
            ],
            [
              120.84536,
              -8.51526
            ],
            [
              120.87431,
              -8.56335
            ],
            [
              120.86051,
              -8.57309
            ],
            [
              120.89138,
              -8.65017
            ],
            [
              120.87497,
              -8.697
            ],
            [
              120.84446,
              -8.70903
            ],
            [
              120.85637,
              -8.74739
            ],
            [
              120.81126,
              -8.82556
            ],
            [
              120.81906,
              -8.83586
            ]
          ]
        ]
      },
      "properties": {
        "id": "reg-ngada",
        "name": "Ngada"
      }
    },
    {
      "type": "Feature",
      "geometry": {
        "type": "MultiPolygon",
        "coordinates": [
          [
            [
              [
                122.39954,
                -8.49653
              ],
              [
                122.39896,
                -8.49722
              ],
              [
                122.39899,
                -8.49875
              ],
              [
                122.39954,
                -8.49653
              ]
            ]
          ],
          [
            [
              [
                122.46762,
                -8.48092
              ],
              [
                122.45765,
                -8.47847
              ],
              [
                122.46095,
                -8.48036
              ],
              [
                122.46762,
                -8.48092
              ]
            ]
          ],
          [
            [
              [
                122.45232,
                -8.45917
              ],
              [
                122.42286,
                -8.47198
              ],
              [
                122.45522,
                -8.47623
              ],
              [
                122.45232,
                -8.45917
              ]
            ]
          ],
          [
            [
              [
                122.44305,
                -8.45592
              ],
              [
                122.44372,
                -8.45057
              ],
              [
                122.44116,
                -8.45467
              ],
              [
                122.44305,
                -8.45592
              ]
            ]
          ],
          [
            [
              [
                122.37251,
                -8.42831
              ],
              [
                122.33419,
                -8.43549
              ],
              [
                122.33461,
                -8.46396
              ],
              [
                122.38902,
                -8.49785
              ],
              [
                122.4227,
                -8.44932
              ],
              [
                122.37251,
                -8.42831
              ]
            ]
          ],
          [
            [
              [
                122.51207,
                -8.41316
              ],
              [
                122.50154,
                -8.43537
              ],
              [
                122.51924,
                -8.43122
              ],
              [
                122.51207,
                -8.41316
              ]
            ]
          ],
          [
            [
              [
                121.99719,
                -8.80588
              ],
              [
                122.1152,
                -8.72965
              ],
              [
                122.28018,
                -8.75469
              ],
              [
                122.31232,
                -8.74067
              ],
              [
                122.37623,
                -8.75248
              ],
              [
                122.46671,
                -8.73341
              ],
              [
                122.53967,
                -8.70133
              ],
              [
                122.55724,
                -8.66634
              ],
              [
                122.65419,
                -8.63712
              ],
              [
                122.65565,
                -8.56233
              ],
              [
                122.68686,
                -8.48468
              ],
              [
                122.67342,
                -8.45971
              ],
              [
                122.68221,
                -8.38328
              ],
              [
                122.59719,
                -8.39288
              ],
              [
                122.59218,
                -8.42346
              ],
              [
                122.57069,
                -8.42895
              ],
              [
                122.54787,
                -8.46416
              ],
              [
                122.49134,
                -8.47299
              ],
              [
                122.47894,
                -8.49357
              ],
              [
                122.51802,
                -8.52642
              ],
              [
                122.51758,
                -8.54706
              ],
              [
                122.47176,
                -8.60945
              ],
              [
                122.36404,
                -8.61137
              ],
              [
                122.29153,
                -8.64221
              ],
              [
                122.22139,
                -8.62008
              ],
              [
                122.15936,
                -8.55581
              ],
              [
                122.10455,
                -8.52891
              ],
              [
                122.08823,
                -8.52752
              ],
              [
                122.08389,
                -8.543
              ],
              [
                122.07143,
                -8.52255
              ],
              [
                122.01811,
                -8.53056
              ],
              [
                121.99955,
                -8.51605
              ],
              [
                121.97681,
                -8.55062
              ],
              [
                121.98441,
                -8.60986
              ],
              [
                121.96264,
                -8.61617
              ],
              [
                121.95871,
                -8.67055
              ],
              [
                121.92615,
                -8.71062
              ],
              [
                121.95178,
                -8.75212
              ],
              [
                121.99049,
                -8.7552
              ],
              [
                121.99719,
                -8.80588
              ]
            ]
          ],
          [
            [
              [
                122.34032,
                -8.34867
              ],
              [
                122.33917,
                -8.35266
              ],
              [
                122.34267,
                -8.3478
              ],
              [
                122.34032,
                -8.34867
              ]
            ]
          ],
          [
            [
              [
                122.31477,
                -8.34511
              ],
              [
                122.27541,
                -8.36772
              ],
              [
                122.30741,
                -8.36849
              ],
              [
                122.31477,
                -8.34511
              ]
            ]
          ],
          [
            [
              [
                121.70703,
                -8.29199
              ],
              [
                121.68557,
                -8.30473
              ],
              [
                121.67755,
                -8.3382
              ],
              [
                121.72801,
                -8.35331
              ],
              [
                121.74628,
                -8.32442
              ],
              [
                121.73,
                -8.29662
              ],
              [
                121.70703,
                -8.29199
              ]
            ]
          ],
          [
            [
              [
                122.13135,
                -8.10747
              ],
              [
                122.10511,
                -8.12412
              ],
              [
                122.1307,
                -8.12153
              ],
              [
                122.13135,
                -8.10747
              ]
            ]
          ]
        ]
      },
      "properties": {
        "id": "reg-sikka",
        "name": "Sikka"
      }
    }
  ]
}
