<?xml version="1.0" encoding="UTF-8"?>
<gpx version="1.1" creator="Flores Race Planner (pipeline/export_gpx.py)" xmlns="http://www.topografix.com/GPX/1/1" xmlns:xsi="http://www.w3.org/2001/XMLSchema-instance" xsi:schemaLocation="http://www.topografix.com/GPX/1/1 http://www.topografix.com/GPX/1/1/gpx.xsd">
  <metadata>
    <name>Bola south-coast loop</name>
    <desc>Bola south-coast loop (loop): Maumere to the Bola coast on the south side of the Sikka isthmus before climbing back to Watublapi and Egon. 45.5 km, +1332 m. Replaces 29.4 km / +649 m of the main course.</desc>
    <link href="https://github.com/technicaloutdoor/Flores-Race"><text>Flores Race Planner</text></link>
    <time>2026-09-05T06:27:58Z</time>
  </metadata>
  <wpt lat="-8.624377" lon="122.210411">
    <ele>24.8</ele>
    <name>Maumere</name>
    <desc>km 0.0 | kind: town | resupply: full | water: reliable | sleep: hotel -- Capital of Sikka Regency and the largest town of the eastern half of the island: market, ATMs, hospital (RSUD dr. TC Hillers), bike-ish parts, hotels. Frans Seda Airport is 5 km out (see p-frans-seda-airport). Rebuilt af</desc>
    <sym>City (Medium)</sym>
    <type>anchor/town</type>
  </wpt>
  <wpt lat="-8.746350" lon="122.296860">
    <ele>0.9</ele>
    <name>Bola</name>
    <desc>km 35.5 | kind: village | resupply: minimal | water: unreliable | sleep: none -- South-coast kecamatan capital, anchor of the optional 'Egon and the Bola coast' Ultra loop (Maumere -&gt; Bola -&gt; Watublapi -&gt; Egon). Wikidata/GNS point (77 m) shifted ~1.5 km to a DEM-confirmed coastal flat (~1 m); that po</desc>
    <sym>Residence</sym>
    <type>anchor/village</type>
  </wpt>
  <wpt lat="-8.698000" lon="122.313000">
    <ele>452.8</ele>
    <name>Watublapi</name>
    <desc>km 45.5 | kind: village | resupply: minimal | water: unreliable | sleep: homestay | position approximate -- Hillside ikat-weaving hamlet (Dusun Watublapi, Desa Kajowair, Kecamatan Hewokloang), about 18 km / 30 min inland-south-east of Maumere. No source gives coordinates for the hamlet itself; placed at the Hewokloang kecamata</desc>
    <sym>Residence</sym>
    <type>anchor/village</type>
  </wpt>
  <wpt lat="-8.746350" lon="122.296860">
    <ele>0.9</ele>
    <name>Bola South Coast</name>
    <desc>[highlight, position unverified] South-coast stretch around Bola village, anchor of the optional Ultra-variant loop (Maumere -&gt; Bola -&gt; Watublapi -&gt; Egon); quieter and less documented than the Paga/Koka coast further west.</desc>
    <sym>Beach</sym>
    <type>poi/beach</type>
  </wpt>
  <wpt lat="-8.665969" lon="122.187054">
    <ele>214.9</ele>
    <name>Ledalero Seminary</name>
    <desc>[highlight] St Paul's Major Seminary, founded 1937 by the Divine Word Missionaries (SVD) on a hilltop ~9 km inland from Maumere; one of the largest Catholic seminaries in the world and a marker of how deeply Catholic this end of Flores is.</desc>
    <sym>Church</sym>
    <type>poi/religious</type>
  </wpt>
  <wpt lat="-8.698000" lon="122.313000">
    <ele>452.8</ele>
    <name>Watublapi Ikat Weaving</name>
    <desc>[highlight, position approximate] Hillside hamlet about 18 km south-east of Maumere where Sikkanese ikat weavers still spin, naturally dye and hand-weave cotton cloth on backstrap looms, with demonstrations and cloth for sale.</desc>
    <sym>Shopping Center</sym>
    <type>poi/weaving</type>
  </wpt>
  <wpt lat="-8.599703" lon="122.202836">
    <ele>7.2</ele>
    <name>Wuring</name>
    <desc>[highlight] Bajo (sea nomad) stilt village built out over the tidal flats at the edge of Maumere bay, a few km west of the town centre; one of Flores' few remaining Bajo settlements, passed on the way into Maumere.</desc>
    <sym>Museum</sym>
    <type>poi/traditional-village</type>
  </wpt>
  <trk>
    <name>Bola south-coast loop</name>
    <desc>Bola south-coast loop (loop): Maumere to the Bola coast on the south side of the Sikka isthmus before climbing back to Watublapi and Egon. 45.5 km, +1332 m. Replaces 29.4 km / +649 m of the main course.</desc>
    <trkseg>
      <trkpt lat="-8.624377" lon="122.210411"><ele>24.8</ele></trkpt>
      <trkpt lat="-8.624132" lon="122.211086"><ele>24.1</ele></trkpt>
      <trkpt lat="-8.625113" lon="122.210557"><ele>24.0</ele></trkpt>
      <trkpt lat="-8.625696" lon="122.211826"><ele>25.8</ele></trkpt>
      <trkpt lat="-8.624682" lon="122.212320"><ele>22.8</ele></trkpt>
      <trkpt lat="-8.625595" lon="122.214279"><ele>26.7</ele></trkpt>
      <trkpt lat="-8.625444" lon="122.214355"><ele>25.4</ele></trkpt>
      <trkpt lat="-8.625770" lon="122.215817"><ele>24.8</ele></trkpt>
      <trkpt lat="-8.625753" lon="122.216019"><ele>24.7</ele></trkpt>
      <trkpt lat="-8.624756" lon="122.216206"><ele>21.7</ele></trkpt>
      <trkpt lat="-8.624772" lon="122.216299"><ele>21.4</ele></trkpt>
      <trkpt lat="-8.623410" lon="122.216584"><ele>16.8</ele></trkpt>
      <trkpt lat="-8.622449" lon="122.217072"><ele>14.5</ele></trkpt>
      <trkpt lat="-8.619904" lon="122.218099"><ele>12.2</ele></trkpt>
      <trkpt lat="-8.620393" lon="122.218612"><ele>13.0</ele></trkpt>
      <trkpt lat="-8.620374" lon="122.218394"><ele>12.5</ele></trkpt>
      <trkpt lat="-8.623334" lon="122.217008"><ele>16.0</ele></trkpt>
      <trkpt lat="-8.623654" lon="122.216931"><ele>16.1</ele></trkpt>
      <trkpt lat="-8.623837" lon="122.217006"><ele>16.0</ele></trkpt>
      <trkpt lat="-8.623971" lon="122.217816"><ele>19.2</ele></trkpt>
      <trkpt lat="-8.623070" lon="122.217979"><ele>17.7</ele></trkpt>
      <trkpt lat="-8.623190" lon="122.218732"><ele>15.4</ele></trkpt>
      <trkpt lat="-8.628450" lon="122.217977"><ele>23.8</ele></trkpt>
      <trkpt lat="-8.629271" lon="122.217764"><ele>27.3</ele></trkpt>
      <trkpt lat="-8.629905" lon="122.217497"><ele>28.0</ele></trkpt>
      <trkpt lat="-8.629471" lon="122.216379"><ele>29.1</ele></trkpt>
      <trkpt lat="-8.631662" lon="122.215633"><ele>32.3</ele></trkpt>
      <trkpt lat="-8.632286" lon="122.215550"><ele>33.7</ele></trkpt>
      <trkpt lat="-8.632355" lon="122.215582"><ele>34.4</ele></trkpt>
      <trkpt lat="-8.632490" lon="122.216541"><ele>34.0</ele></trkpt>
      <trkpt lat="-8.632462" lon="122.216809"><ele>34.4</ele></trkpt>
      <trkpt lat="-8.632786" lon="122.219530"><ele>32.1</ele></trkpt>
      <trkpt lat="-8.631938" lon="122.219634"><ele>30.7</ele></trkpt>
      <trkpt lat="-8.631966" lon="122.219782"><ele>31.3</ele></trkpt>
      <trkpt lat="-8.633356" lon="122.220749"><ele>39.2</ele></trkpt>
      <trkpt lat="-8.633886" lon="122.221286"><ele>40.3</ele></trkpt>
      <trkpt lat="-8.634533" lon="122.221455"><ele>39.1</ele></trkpt>
      <trkpt lat="-8.634885" lon="122.221445"><ele>42.0</ele></trkpt>
      <trkpt lat="-8.635614" lon="122.221243"><ele>41.8</ele></trkpt>
      <trkpt lat="-8.637416" lon="122.220929"><ele>42.6</ele></trkpt>
      <trkpt lat="-8.638141" lon="122.221272"><ele>44.2</ele></trkpt>
      <trkpt lat="-8.638835" lon="122.221323"><ele>44.4</ele></trkpt>
      <trkpt lat="-8.639311" lon="122.221199"><ele>46.6</ele></trkpt>
      <trkpt lat="-8.640818" lon="122.221119"><ele>52.9</ele></trkpt>
      <trkpt lat="-8.641766" lon="122.220665"><ele>58.2</ele></trkpt>
      <trkpt lat="-8.642624" lon="122.220924"><ele>60.7</ele></trkpt>
      <trkpt lat="-8.644176" lon="122.221849"><ele>69.0</ele></trkpt>
      <trkpt lat="-8.645295" lon="122.222882"><ele>72.7</ele></trkpt>
      <trkpt lat="-8.648296" lon="122.224298"><ele>87.4</ele></trkpt>
      <trkpt lat="-8.651141" lon="122.226155"><ele>93.8</ele></trkpt>
      <trkpt lat="-8.651779" lon="122.226832"><ele>97.8</ele></trkpt>
      <trkpt lat="-8.656324" lon="122.226104"><ele>118.7</ele></trkpt>
      <trkpt lat="-8.658193" lon="122.226106"><ele>128.9</ele></trkpt>
      <trkpt lat="-8.659498" lon="122.226232"><ele>135.6</ele></trkpt>
      <trkpt lat="-8.660361" lon="122.226166"><ele>138.5</ele></trkpt>
      <trkpt lat="-8.661846" lon="122.226321"><ele>147.3</ele></trkpt>
      <trkpt lat="-8.660847" lon="122.227254"><ele>144.2</ele></trkpt>
      <trkpt lat="-8.660278" lon="122.227676"><ele>142.0</ele></trkpt>
      <trkpt lat="-8.658612" lon="122.228127"><ele>129.0</ele></trkpt>
      <trkpt lat="-8.657845" lon="122.228224"><ele>124.8</ele></trkpt>
      <trkpt lat="-8.656594" lon="122.228525"><ele>117.4</ele></trkpt>
      <trkpt lat="-8.655279" lon="122.229576"><ele>111.0</ele></trkpt>
      <trkpt lat="-8.653705" lon="122.230655"><ele>98.7</ele></trkpt>
      <trkpt lat="-8.653667" lon="122.230773"><ele>97.8</ele></trkpt>
      <trkpt lat="-8.653931" lon="122.231661"><ele>95.5</ele></trkpt>
      <trkpt lat="-8.654207" lon="122.232331"><ele>92.5</ele></trkpt>
      <trkpt lat="-8.654433" lon="122.232548"><ele>89.6</ele></trkpt>
      <trkpt lat="-8.654671" lon="122.233266"><ele>88.8</ele></trkpt>
      <trkpt lat="-8.654524" lon="122.233791"><ele>87.9</ele></trkpt>
      <trkpt lat="-8.654040" lon="122.234214"><ele>83.5</ele></trkpt>
      <trkpt lat="-8.653803" lon="122.235013"><ele>79.4</ele></trkpt>
      <trkpt lat="-8.653815" lon="122.235502"><ele>80.8</ele></trkpt>
      <trkpt lat="-8.653990" lon="122.235922"><ele>80.5</ele></trkpt>
      <trkpt lat="-8.654046" lon="122.236308"><ele>79.3</ele></trkpt>
      <trkpt lat="-8.653851" lon="122.236543"><ele>76.9</ele></trkpt>
      <trkpt lat="-8.653584" lon="122.236694"><ele>76.5</ele></trkpt>
      <trkpt lat="-8.653110" lon="122.236678"><ele>78.1</ele></trkpt>
      <trkpt lat="-8.652957" lon="122.236952"><ele>79.6</ele></trkpt>
      <trkpt lat="-8.653291" lon="122.238823"><ele>87.0</ele></trkpt>
      <trkpt lat="-8.653850" lon="122.239501"><ele>88.0</ele></trkpt>
      <trkpt lat="-8.653691" lon="122.239890"><ele>81.1</ele></trkpt>
      <trkpt lat="-8.653567" lon="122.240587"><ele>75.0</ele></trkpt>
      <trkpt lat="-8.653424" lon="122.242696"><ele>76.7</ele></trkpt>
      <trkpt lat="-8.651311" lon="122.242861"><ele>62.7</ele></trkpt>
      <trkpt lat="-8.649758" lon="122.243184"><ele>57.5</ele></trkpt>
      <trkpt lat="-8.649689" lon="122.243378"><ele>56.8</ele></trkpt>
      <trkpt lat="-8.650002" lon="122.244719"><ele>51.0</ele></trkpt>
      <trkpt lat="-8.647758" lon="122.244992"><ele>45.9</ele></trkpt>
      <trkpt lat="-8.647353" lon="122.245125"><ele>45.0</ele></trkpt>
      <trkpt lat="-8.647234" lon="122.245228"><ele>45.0</ele></trkpt>
      <trkpt lat="-8.650051" lon="122.246241"><ele>54.5</ele></trkpt>
      <trkpt lat="-8.650419" lon="122.246776"><ele>57.5</ele></trkpt>
      <trkpt lat="-8.650867" lon="122.246895"><ele>61.4</ele></trkpt>
      <trkpt lat="-8.651147" lon="122.247273"><ele>60.8</ele></trkpt>
      <trkpt lat="-8.651679" lon="122.247610"><ele>60.1</ele></trkpt>
      <trkpt lat="-8.652735" lon="122.247774"><ele>63.0</ele></trkpt>
      <trkpt lat="-8.652852" lon="122.248104"><ele>63.1</ele></trkpt>
      <trkpt lat="-8.652667" lon="122.248543"><ele>60.7</ele></trkpt>
      <trkpt lat="-8.652681" lon="122.248691"><ele>60.5</ele></trkpt>
      <trkpt lat="-8.653117" lon="122.249043"><ele>63.1</ele></trkpt>
      <trkpt lat="-8.653340" lon="122.248928"><ele>65.5</ele></trkpt>
      <trkpt lat="-8.653437" lon="122.249088"><ele>68.1</ele></trkpt>
      <trkpt lat="-8.653882" lon="122.249437"><ele>71.0</ele></trkpt>
      <trkpt lat="-8.654375" lon="122.250213"><ele>69.7</ele></trkpt>
      <trkpt lat="-8.654519" lon="122.250909"><ele>69.8</ele></trkpt>
      <trkpt lat="-8.654993" lon="122.251762"><ele>76.6</ele></trkpt>
      <trkpt lat="-8.655595" lon="122.252125"><ele>81.2</ele></trkpt>
      <trkpt lat="-8.655567" lon="122.253078"><ele>85.0</ele></trkpt>
      <trkpt lat="-8.655696" lon="122.253489"><ele>86.0</ele></trkpt>
      <trkpt lat="-8.655576" lon="122.254443"><ele>86.2</ele></trkpt>
      <trkpt lat="-8.653648" lon="122.254061"><ele>74.3</ele></trkpt>
      <trkpt lat="-8.652214" lon="122.253956"><ele>66.2</ele></trkpt>
      <trkpt lat="-8.652242" lon="122.254796"><ele>68.1</ele></trkpt>
      <trkpt lat="-8.652371" lon="122.255077"><ele>68.9</ele></trkpt>
      <trkpt lat="-8.652692" lon="122.255393"><ele>71.0</ele></trkpt>
      <trkpt lat="-8.652810" lon="122.255641"><ele>72.1</ele></trkpt>
      <trkpt lat="-8.652989" lon="122.256257"><ele>71.9</ele></trkpt>
      <trkpt lat="-8.653006" lon="122.256987"><ele>70.8</ele></trkpt>
      <trkpt lat="-8.653136" lon="122.257360"><ele>70.6</ele></trkpt>
      <trkpt lat="-8.652816" lon="122.257436"><ele>69.3</ele></trkpt>
      <trkpt lat="-8.652290" lon="122.257752"><ele>67.1</ele></trkpt>
      <trkpt lat="-8.651298" lon="122.258159"><ele>62.6</ele></trkpt>
      <trkpt lat="-8.650627" lon="122.258356"><ele>59.4</ele></trkpt>
      <trkpt lat="-8.649921" lon="122.258718"><ele>55.6</ele></trkpt>
      <trkpt lat="-8.649565" lon="122.258580"><ele>55.1</ele></trkpt>
      <trkpt lat="-8.649221" lon="122.258564"><ele>55.0</ele></trkpt>
      <trkpt lat="-8.648001" lon="122.258597"><ele>48.7</ele></trkpt>
      <trkpt lat="-8.646961" lon="122.258749"><ele>46.1</ele></trkpt>
      <trkpt lat="-8.646226" lon="122.258598"><ele>43.0</ele></trkpt>
      <trkpt lat="-8.645816" lon="122.258614"><ele>42.9</ele></trkpt>
      <trkpt lat="-8.645728" lon="122.258638"><ele>42.3</ele></trkpt>
      <trkpt lat="-8.645602" lon="122.258968"><ele>42.5</ele></trkpt>
      <trkpt lat="-8.643676" lon="122.259102"><ele>35.1</ele></trkpt>
      <trkpt lat="-8.643377" lon="122.259226"><ele>34.1</ele></trkpt>
      <trkpt lat="-8.642741" lon="122.259298"><ele>33.3</ele></trkpt>
      <trkpt lat="-8.642606" lon="122.259592"><ele>32.9</ele></trkpt>
      <trkpt lat="-8.642151" lon="122.259805"><ele>30.7</ele></trkpt>
      <trkpt lat="-8.642117" lon="122.260108"><ele>30.6</ele></trkpt>
      <trkpt lat="-8.641005" lon="122.260353"><ele>26.1</ele></trkpt>
      <trkpt lat="-8.640418" lon="122.260373"><ele>23.2</ele></trkpt>
      <trkpt lat="-8.639935" lon="122.260262"><ele>22.3</ele></trkpt>
      <trkpt lat="-8.638213" lon="122.260298"><ele>20.5</ele></trkpt>
      <trkpt lat="-8.636973" lon="122.260609"><ele>18.0</ele></trkpt>
      <trkpt lat="-8.635709" lon="122.260730"><ele>14.6</ele></trkpt>
      <trkpt lat="-8.636120" lon="122.262205"><ele>16.0</ele></trkpt>
      <trkpt lat="-8.636482" lon="122.264614"><ele>15.1</ele></trkpt>
      <trkpt lat="-8.638024" lon="122.264363"><ele>18.7</ele></trkpt>
      <trkpt lat="-8.638252" lon="122.264240"><ele>18.3</ele></trkpt>
      <trkpt lat="-8.638890" lon="122.264491"><ele>18.7</ele></trkpt>
      <trkpt lat="-8.639936" lon="122.264353"><ele>21.8</ele></trkpt>
      <trkpt lat="-8.640104" lon="122.264715"><ele>22.4</ele></trkpt>
      <trkpt lat="-8.640828" lon="122.264591"><ele>26.0</ele></trkpt>
      <trkpt lat="-8.641656" lon="122.264324"><ele>25.9</ele></trkpt>
      <trkpt lat="-8.641947" lon="122.264349"><ele>26.4</ele></trkpt>
      <trkpt lat="-8.643362" lon="122.264007"><ele>31.4</ele></trkpt>
      <trkpt lat="-8.643435" lon="122.263623"><ele>31.7</ele></trkpt>
      <trkpt lat="-8.644713" lon="122.262939"><ele>38.0</ele></trkpt>
      <trkpt lat="-8.644890" lon="122.262912"><ele>38.6</ele></trkpt>
      <trkpt lat="-8.645068" lon="122.263060"><ele>39.0</ele></trkpt>
      <trkpt lat="-8.645220" lon="122.263073"><ele>39.0</ele></trkpt>
      <trkpt lat="-8.645945" lon="122.262845"><ele>40.7</ele></trkpt>
      <trkpt lat="-8.646832" lon="122.262739"><ele>47.0</ele></trkpt>
      <trkpt lat="-8.648033" lon="122.262776"><ele>50.0</ele></trkpt>
      <trkpt lat="-8.649363" lon="122.263032"><ele>55.9</ele></trkpt>
      <trkpt lat="-8.649512" lon="122.263121"><ele>56.7</ele></trkpt>
      <trkpt lat="-8.649692" lon="122.263426"><ele>59.5</ele></trkpt>
      <trkpt lat="-8.649846" lon="122.264281"><ele>58.3</ele></trkpt>
      <trkpt lat="-8.652353" lon="122.263815"><ele>70.3</ele></trkpt>
      <trkpt lat="-8.654271" lon="122.263770"><ele>76.9</ele></trkpt>
      <trkpt lat="-8.657518" lon="122.263347"><ele>92.1</ele></trkpt>
      <trkpt lat="-8.659366" lon="122.262924"><ele>101.2</ele></trkpt>
      <trkpt lat="-8.665245" lon="122.261874"><ele>135.8</ele></trkpt>
      <trkpt lat="-8.666631" lon="122.261363"><ele>142.0</ele></trkpt>
      <trkpt lat="-8.667465" lon="122.260840"><ele>151.0</ele></trkpt>
      <trkpt lat="-8.667661" lon="122.261236"><ele>147.8</ele></trkpt>
      <trkpt lat="-8.667668" lon="122.262304"><ele>138.0</ele></trkpt>
      <trkpt lat="-8.667508" lon="122.262760"><ele>137.0</ele></trkpt>
      <trkpt lat="-8.667615" lon="122.263020"><ele>132.6</ele></trkpt>
      <trkpt lat="-8.667812" lon="122.263213"><ele>129.9</ele></trkpt>
      <trkpt lat="-8.667908" lon="122.263251"><ele>129.8</ele></trkpt>
      <trkpt lat="-8.668123" lon="122.263183"><ele>130.6</ele></trkpt>
      <trkpt lat="-8.669385" lon="122.263475"><ele>140.2</ele></trkpt>
      <trkpt lat="-8.669987" lon="122.263869"><ele>144.0</ele></trkpt>
      <trkpt lat="-8.670705" lon="122.263978"><ele>142.7</ele></trkpt>
      <trkpt lat="-8.671373" lon="122.264294"><ele>142.0</ele></trkpt>
      <trkpt lat="-8.671944" lon="122.264400"><ele>142.8</ele></trkpt>
      <trkpt lat="-8.673006" lon="122.265002"><ele>144.8</ele></trkpt>
      <trkpt lat="-8.674193" lon="122.265289"><ele>149.3</ele></trkpt>
      <trkpt lat="-8.674727" lon="122.265089"><ele>151.7</ele></trkpt>
      <trkpt lat="-8.675120" lon="122.265132"><ele>153.0</ele></trkpt>
      <trkpt lat="-8.676112" lon="122.264891"><ele>155.4</ele></trkpt>
      <trkpt lat="-8.676372" lon="122.264926"><ele>156.0</ele></trkpt>
      <trkpt lat="-8.676618" lon="122.264658"><ele>158.4</ele></trkpt>
      <trkpt lat="-8.677113" lon="122.264307"><ele>165.1</ele></trkpt>
      <trkpt lat="-8.677431" lon="122.264377"><ele>165.9</ele></trkpt>
      <trkpt lat="-8.677728" lon="122.264287"><ele>166.6</ele></trkpt>
      <trkpt lat="-8.678621" lon="122.264376"><ele>174.3</ele></trkpt>
      <trkpt lat="-8.679018" lon="122.264295"><ele>176.0</ele></trkpt>
      <trkpt lat="-8.679673" lon="122.264018"><ele>179.3</ele></trkpt>
      <trkpt lat="-8.680141" lon="122.264005"><ele>180.4</ele></trkpt>
      <trkpt lat="-8.680671" lon="122.263834"><ele>182.3</ele></trkpt>
      <trkpt lat="-8.681088" lon="122.263786"><ele>187.4</ele></trkpt>
      <trkpt lat="-8.681179" lon="122.263830"><ele>187.7</ele></trkpt>
      <trkpt lat="-8.681393" lon="122.264181"><ele>188.2</ele></trkpt>
      <trkpt lat="-8.681836" lon="122.264139"><ele>191.7</ele></trkpt>
      <trkpt lat="-8.682224" lon="122.264450"><ele>193.0</ele></trkpt>
      <trkpt lat="-8.683511" lon="122.264872"><ele>200.1</ele></trkpt>
      <trkpt lat="-8.683960" lon="122.264906"><ele>202.6</ele></trkpt>
      <trkpt lat="-8.684735" lon="122.264662"><ele>207.2</ele></trkpt>
      <trkpt lat="-8.685331" lon="122.264264"><ele>211.6</ele></trkpt>
      <trkpt lat="-8.685602" lon="122.264183"><ele>214.7</ele></trkpt>
      <trkpt lat="-8.686185" lon="122.264318"><ele>220.9</ele></trkpt>
      <trkpt lat="-8.686921" lon="122.265014"><ele>221.9</ele></trkpt>
      <trkpt lat="-8.687285" lon="122.265043"><ele>223.8</ele></trkpt>
      <trkpt lat="-8.687888" lon="122.264815"><ele>225.9</ele></trkpt>
      <trkpt lat="-8.688721" lon="122.264292"><ele>229.7</ele></trkpt>
      <trkpt lat="-8.689361" lon="122.264042"><ele>238.5</ele></trkpt>
      <trkpt lat="-8.690409" lon="122.262950"><ele>247.8</ele></trkpt>
      <trkpt lat="-8.690571" lon="122.262875"><ele>247.2</ele></trkpt>
      <trkpt lat="-8.691726" lon="122.262864"><ele>251.3</ele></trkpt>
      <trkpt lat="-8.692327" lon="122.263281"><ele>252.3</ele></trkpt>
      <trkpt lat="-8.693026" lon="122.263558"><ele>260.0</ele></trkpt>
      <trkpt lat="-8.693356" lon="122.263456"><ele>265.8</ele></trkpt>
      <trkpt lat="-8.693804" lon="122.262984"><ele>274.0</ele></trkpt>
      <trkpt lat="-8.694234" lon="122.262666"><ele>282.0</ele></trkpt>
      <trkpt lat="-8.694618" lon="122.262537"><ele>278.4</ele></trkpt>
      <trkpt lat="-8.694987" lon="122.262524"><ele>276.7</ele></trkpt>
      <trkpt lat="-8.695105" lon="122.262649"><ele>276.0</ele></trkpt>
      <trkpt lat="-8.695166" lon="122.263103"><ele>274.9</ele></trkpt>
      <trkpt lat="-8.695483" lon="122.263571"><ele>282.8</ele></trkpt>
      <trkpt lat="-8.696583" lon="122.263700"><ele>293.6</ele></trkpt>
      <trkpt lat="-8.696824" lon="122.263858"><ele>297.2</ele></trkpt>
      <trkpt lat="-8.696451" lon="122.264398"><ele>297.6</ele></trkpt>
      <trkpt lat="-8.695842" lon="122.264677"><ele>300.0</ele></trkpt>
      <trkpt lat="-8.694859" lon="122.264243"><ele>299.8</ele></trkpt>
      <trkpt lat="-8.694548" lon="122.264298"><ele>300.3</ele></trkpt>
      <trkpt lat="-8.694320" lon="122.264608"><ele>307.2</ele></trkpt>
      <trkpt lat="-8.693984" lon="122.264796"><ele>304.3</ele></trkpt>
      <trkpt lat="-8.694228" lon="122.265243"><ele>328.0</ele></trkpt>
      <trkpt lat="-8.693930" lon="122.265740"><ele>317.0</ele></trkpt>
      <trkpt lat="-8.694414" lon="122.265328"><ele>333.8</ele></trkpt>
      <trkpt lat="-8.694415" lon="122.264958"><ele>327.8</ele></trkpt>
      <trkpt lat="-8.694478" lon="122.264863"><ele>324.9</ele></trkpt>
      <trkpt lat="-8.694669" lon="122.264790"><ele>323.4</ele></trkpt>
      <trkpt lat="-8.695039" lon="122.264915"><ele>325.9</ele></trkpt>
      <trkpt lat="-8.695574" lon="122.265386"><ele>334.7</ele></trkpt>
      <trkpt lat="-8.695971" lon="122.265501"><ele>331.3</ele></trkpt>
      <trkpt lat="-8.696195" lon="122.265993"><ele>344.8</ele></trkpt>
      <trkpt lat="-8.696560" lon="122.266172"><ele>341.9</ele></trkpt>
      <trkpt lat="-8.696996" lon="122.266597"><ele>347.3</ele></trkpt>
      <trkpt lat="-8.697351" lon="122.266724"><ele>349.4</ele></trkpt>
      <trkpt lat="-8.698345" lon="122.266765"><ele>364.1</ele></trkpt>
      <trkpt lat="-8.698454" lon="122.266887"><ele>362.6</ele></trkpt>
      <trkpt lat="-8.698604" lon="122.267397"><ele>363.5</ele></trkpt>
      <trkpt lat="-8.698721" lon="122.267506"><ele>364.3</ele></trkpt>
      <trkpt lat="-8.699538" lon="122.267625"><ele>361.5</ele></trkpt>
      <trkpt lat="-8.699772" lon="122.267731"><ele>363.6</ele></trkpt>
      <trkpt lat="-8.699964" lon="122.267954"><ele>367.1</ele></trkpt>
      <trkpt lat="-8.700591" lon="122.269313"><ele>387.1</ele></trkpt>
      <trkpt lat="-8.701192" lon="122.270205"><ele>397.1</ele></trkpt>
      <trkpt lat="-8.701747" lon="122.270270"><ele>402.8</ele></trkpt>
      <trkpt lat="-8.702310" lon="122.270201"><ele>411.2</ele></trkpt>
      <trkpt lat="-8.702752" lon="122.269772"><ele>417.2</ele></trkpt>
      <trkpt lat="-8.703283" lon="122.269589"><ele>413.1</ele></trkpt>
      <trkpt lat="-8.703569" lon="122.269672"><ele>417.7</ele></trkpt>
      <trkpt lat="-8.703993" lon="122.270126"><ele>421.8</ele></trkpt>
      <trkpt lat="-8.704327" lon="122.270739"><ele>411.1</ele></trkpt>
      <trkpt lat="-8.704180" lon="122.271141"><ele>396.4</ele></trkpt>
      <trkpt lat="-8.704200" lon="122.271311"><ele>396.1</ele></trkpt>
      <trkpt lat="-8.704791" lon="122.271775"><ele>414.2</ele></trkpt>
      <trkpt lat="-8.704927" lon="122.272573"><ele>396.8</ele></trkpt>
      <trkpt lat="-8.705293" lon="122.272686"><ele>404.3</ele></trkpt>
      <trkpt lat="-8.705354" lon="122.272766"><ele>403.1</ele></trkpt>
      <trkpt lat="-8.705328" lon="122.273050"><ele>397.5</ele></trkpt>
      <trkpt lat="-8.705107" lon="122.273715"><ele>392.9</ele></trkpt>
      <trkpt lat="-8.705397" lon="122.274185"><ele>398.5</ele></trkpt>
      <trkpt lat="-8.705498" lon="122.274735"><ele>395.9</ele></trkpt>
      <trkpt lat="-8.705203" lon="122.275044"><ele>387.9</ele></trkpt>
      <trkpt lat="-8.704967" lon="122.275132"><ele>386.7</ele></trkpt>
      <trkpt lat="-8.704595" lon="122.274891"><ele>378.1</ele></trkpt>
      <trkpt lat="-8.704318" lon="122.274926"><ele>371.7</ele></trkpt>
      <trkpt lat="-8.704219" lon="122.275151"><ele>374.8</ele></trkpt>
      <trkpt lat="-8.704423" lon="122.275674"><ele>384.4</ele></trkpt>
      <trkpt lat="-8.704405" lon="122.275791"><ele>384.1</ele></trkpt>
      <trkpt lat="-8.704223" lon="122.275854"><ele>381.0</ele></trkpt>
      <trkpt lat="-8.703663" lon="122.275772"><ele>370.9</ele></trkpt>
      <trkpt lat="-8.703017" lon="122.276109"><ele>374.6</ele></trkpt>
      <trkpt lat="-8.702991" lon="122.276270"><ele>374.2</ele></trkpt>
      <trkpt lat="-8.703282" lon="122.276759"><ele>381.7</ele></trkpt>
      <trkpt lat="-8.702937" lon="122.277152"><ele>375.0</ele></trkpt>
      <trkpt lat="-8.702910" lon="122.277372"><ele>374.8</ele></trkpt>
      <trkpt lat="-8.703238" lon="122.277725"><ele>381.6</ele></trkpt>
      <trkpt lat="-8.703425" lon="122.278086"><ele>382.6</ele></trkpt>
      <trkpt lat="-8.703874" lon="122.278650"><ele>375.8</ele></trkpt>
      <trkpt lat="-8.704064" lon="122.278756"><ele>371.6</ele></trkpt>
      <trkpt lat="-8.704261" lon="122.278682"><ele>372.9</ele></trkpt>
      <trkpt lat="-8.704495" lon="122.278084"><ele>387.3</ele></trkpt>
      <trkpt lat="-8.704588" lon="122.278096"><ele>388.6</ele></trkpt>
      <trkpt lat="-8.704987" lon="122.278556"><ele>377.4</ele></trkpt>
      <trkpt lat="-8.705290" lon="122.278625"><ele>374.1</ele></trkpt>
      <trkpt lat="-8.705618" lon="122.278421"><ele>372.1</ele></trkpt>
      <trkpt lat="-8.706231" lon="122.277624"><ele>383.3</ele></trkpt>
      <trkpt lat="-8.706470" lon="122.277540"><ele>381.0</ele></trkpt>
      <trkpt lat="-8.706660" lon="122.277635"><ele>378.6</ele></trkpt>
      <trkpt lat="-8.706662" lon="122.277788"><ele>375.9</ele></trkpt>
      <trkpt lat="-8.706453" lon="122.278096"><ele>371.5</ele></trkpt>
      <trkpt lat="-8.706186" lon="122.279225"><ele>360.6</ele></trkpt>
      <trkpt lat="-8.705822" lon="122.279507"><ele>354.2</ele></trkpt>
      <trkpt lat="-8.705796" lon="122.279719"><ele>354.6</ele></trkpt>
      <trkpt lat="-8.705877" lon="122.279814"><ele>354.9</ele></trkpt>
      <trkpt lat="-8.706406" lon="122.279817"><ele>362.5</ele></trkpt>
      <trkpt lat="-8.706889" lon="122.279661"><ele>366.6</ele></trkpt>
      <trkpt lat="-8.707193" lon="122.279709"><ele>368.3</ele></trkpt>
      <trkpt lat="-8.708486" lon="122.280371"><ele>365.7</ele></trkpt>
      <trkpt lat="-8.709475" lon="122.281253"><ele>377.1</ele></trkpt>
      <trkpt lat="-8.710503" lon="122.281709"><ele>385.7</ele></trkpt>
      <trkpt lat="-8.710570" lon="122.281575"><ele>388.7</ele></trkpt>
      <trkpt lat="-8.710540" lon="122.281464"><ele>389.5</ele></trkpt>
      <trkpt lat="-8.709690" lon="122.280577"><ele>382.4</ele></trkpt>
      <trkpt lat="-8.709635" lon="122.280426"><ele>381.1</ele></trkpt>
      <trkpt lat="-8.709689" lon="122.280308"><ele>381.6</ele></trkpt>
      <trkpt lat="-8.710324" lon="122.279722"><ele>387.8</ele></trkpt>
      <trkpt lat="-8.710404" lon="122.279374"><ele>386.2</ele></trkpt>
      <trkpt lat="-8.711110" lon="122.278645"><ele>390.5</ele></trkpt>
      <trkpt lat="-8.712287" lon="122.278395"><ele>402.9</ele></trkpt>
      <trkpt lat="-8.712767" lon="122.278060"><ele>394.3</ele></trkpt>
      <trkpt lat="-8.712894" lon="122.277773"><ele>398.2</ele></trkpt>
      <trkpt lat="-8.712987" lon="122.276703"><ele>410.7</ele></trkpt>
      <trkpt lat="-8.713111" lon="122.276322"><ele>416.1</ele></trkpt>
      <trkpt lat="-8.713223" lon="122.276196"><ele>419.3</ele></trkpt>
      <trkpt lat="-8.714416" lon="122.275523"><ele>431.1</ele></trkpt>
      <trkpt lat="-8.714631" lon="122.275543"><ele>423.2</ele></trkpt>
      <trkpt lat="-8.714804" lon="122.275652"><ele>411.2</ele></trkpt>
      <trkpt lat="-8.715272" lon="122.276193"><ele>376.2</ele></trkpt>
      <trkpt lat="-8.715431" lon="122.276200"><ele>370.9</ele></trkpt>
      <trkpt lat="-8.715529" lon="122.275985"><ele>373.3</ele></trkpt>
      <trkpt lat="-8.715635" lon="122.274603"><ele>404.6</ele></trkpt>
      <trkpt lat="-8.715708" lon="122.274509"><ele>409.8</ele></trkpt>
      <trkpt lat="-8.715911" lon="122.274455"><ele>415.3</ele></trkpt>
      <trkpt lat="-8.716333" lon="122.274653"><ele>410.7</ele></trkpt>
      <trkpt lat="-8.716846" lon="122.275238"><ele>379.2</ele></trkpt>
      <trkpt lat="-8.717143" lon="122.275437"><ele>373.3</ele></trkpt>
      <trkpt lat="-8.717274" lon="122.275828"><ele>356.2</ele></trkpt>
      <trkpt lat="-8.717361" lon="122.276726"><ele>354.5</ele></trkpt>
      <trkpt lat="-8.717597" lon="122.277034"><ele>351.9</ele></trkpt>
      <trkpt lat="-8.717904" lon="122.276958"><ele>346.6</ele></trkpt>
      <trkpt lat="-8.718464" lon="122.276405"><ele>345.4</ele></trkpt>
      <trkpt lat="-8.718492" lon="122.276064"><ele>346.4</ele></trkpt>
      <trkpt lat="-8.718392" lon="122.275679"><ele>352.1</ele></trkpt>
      <trkpt lat="-8.718501" lon="122.275589"><ele>354.1</ele></trkpt>
      <trkpt lat="-8.719279" lon="122.275861"><ele>345.4</ele></trkpt>
      <trkpt lat="-8.719455" lon="122.276009"><ele>340.8</ele></trkpt>
      <trkpt lat="-8.719476" lon="122.276249"><ele>336.2</ele></trkpt>
      <trkpt lat="-8.719130" lon="122.276726"><ele>328.3</ele></trkpt>
      <trkpt lat="-8.719753" lon="122.276593"><ele>329.5</ele></trkpt>
      <trkpt lat="-8.720212" lon="122.276636"><ele>314.7</ele></trkpt>
      <trkpt lat="-8.720311" lon="122.276182"><ele>328.0</ele></trkpt>
      <trkpt lat="-8.720451" lon="122.276084"><ele>331.2</ele></trkpt>
      <trkpt lat="-8.720633" lon="122.276117"><ele>328.4</ele></trkpt>
      <trkpt lat="-8.720939" lon="122.276397"><ele>308.6</ele></trkpt>
      <trkpt lat="-8.721126" lon="122.276441"><ele>304.9</ele></trkpt>
      <trkpt lat="-8.721649" lon="122.276177"><ele>308.8</ele></trkpt>
      <trkpt lat="-8.721837" lon="122.276150"><ele>306.4</ele></trkpt>
      <trkpt lat="-8.722083" lon="122.276398"><ele>303.8</ele></trkpt>
      <trkpt lat="-8.722588" lon="122.276617"><ele>316.1</ele></trkpt>
      <trkpt lat="-8.722834" lon="122.277360"><ele>315.4</ele></trkpt>
      <trkpt lat="-8.722993" lon="122.277452"><ele>320.5</ele></trkpt>
      <trkpt lat="-8.723342" lon="122.277434"><ele>337.8</ele></trkpt>
      <trkpt lat="-8.723496" lon="122.277513"><ele>337.9</ele></trkpt>
      <trkpt lat="-8.724034" lon="122.278120"><ele>318.6</ele></trkpt>
      <trkpt lat="-8.725164" lon="122.279197"><ele>288.4</ele></trkpt>
      <trkpt lat="-8.725862" lon="122.279694"><ele>277.7</ele></trkpt>
      <trkpt lat="-8.726165" lon="122.279822"><ele>274.9</ele></trkpt>
      <trkpt lat="-8.726803" lon="122.280376"><ele>278.5</ele></trkpt>
      <trkpt lat="-8.728210" lon="122.280433"><ele>273.7</ele></trkpt>
      <trkpt lat="-8.729126" lon="122.280681"><ele>281.3</ele></trkpt>
      <trkpt lat="-8.729878" lon="122.280709"><ele>264.2</ele></trkpt>
      <trkpt lat="-8.730124" lon="122.280848"><ele>263.5</ele></trkpt>
      <trkpt lat="-8.730366" lon="122.281195"><ele>266.7</ele></trkpt>
      <trkpt lat="-8.730565" lon="122.281283"><ele>264.3</ele></trkpt>
      <trkpt lat="-8.731393" lon="122.281219"><ele>247.5</ele></trkpt>
      <trkpt lat="-8.731914" lon="122.280917"><ele>237.9</ele></trkpt>
      <trkpt lat="-8.732187" lon="122.280835"><ele>235.3</ele></trkpt>
      <trkpt lat="-8.733290" lon="122.280919"><ele>208.8</ele></trkpt>
      <trkpt lat="-8.733396" lon="122.281249"><ele>208.2</ele></trkpt>
      <trkpt lat="-8.733732" lon="122.281779"><ele>196.9</ele></trkpt>
      <trkpt lat="-8.734025" lon="122.281989"><ele>191.3</ele></trkpt>
      <trkpt lat="-8.734324" lon="122.282636"><ele>187.7</ele></trkpt>
      <trkpt lat="-8.734659" lon="122.282767"><ele>183.1</ele></trkpt>
      <trkpt lat="-8.735397" lon="122.282830"><ele>170.0</ele></trkpt>
      <trkpt lat="-8.735414" lon="122.283187"><ele>170.8</ele></trkpt>
      <trkpt lat="-8.735540" lon="122.283435"><ele>168.7</ele></trkpt>
      <trkpt lat="-8.736671" lon="122.284397"><ele>138.6</ele></trkpt>
      <trkpt lat="-8.736959" lon="122.284467"><ele>136.4</ele></trkpt>
      <trkpt lat="-8.737149" lon="122.284631"><ele>137.3</ele></trkpt>
      <trkpt lat="-8.737464" lon="122.284761"><ele>133.5</ele></trkpt>
      <trkpt lat="-8.737571" lon="122.285034"><ele>134.6</ele></trkpt>
      <trkpt lat="-8.737880" lon="122.285307"><ele>131.6</ele></trkpt>
      <trkpt lat="-8.738233" lon="122.285865"><ele>132.4</ele></trkpt>
      <trkpt lat="-8.738321" lon="122.286154"><ele>136.1</ele></trkpt>
      <trkpt lat="-8.738328" lon="122.286803"><ele>132.0</ele></trkpt>
      <trkpt lat="-8.738593" lon="122.287059"><ele>131.1</ele></trkpt>
      <trkpt lat="-8.738816" lon="122.287478"><ele>129.6</ele></trkpt>
      <trkpt lat="-8.738407" lon="122.288007"><ele>113.7</ele></trkpt>
      <trkpt lat="-8.738724" lon="122.288580"><ele>114.5</ele></trkpt>
      <trkpt lat="-8.738051" lon="122.288628"><ele>102.6</ele></trkpt>
      <trkpt lat="-8.737921" lon="122.288540"><ele>99.5</ele></trkpt>
      <trkpt lat="-8.737874" lon="122.288320"><ele>99.5</ele></trkpt>
      <trkpt lat="-8.737795" lon="122.288261"><ele>97.9</ele></trkpt>
      <trkpt lat="-8.737569" lon="122.288269"><ele>92.6</ele></trkpt>
      <trkpt lat="-8.737434" lon="122.288415"><ele>88.3</ele></trkpt>
      <trkpt lat="-8.737448" lon="122.288802"><ele>86.3</ele></trkpt>
      <trkpt lat="-8.737820" lon="122.290443"><ele>81.1</ele></trkpt>
      <trkpt lat="-8.738005" lon="122.290650"><ele>82.0</ele></trkpt>
      <trkpt lat="-8.739254" lon="122.290770"><ele>77.7</ele></trkpt>
      <trkpt lat="-8.739702" lon="122.290988"><ele>79.6</ele></trkpt>
      <trkpt lat="-8.739953" lon="122.291271"><ele>82.1</ele></trkpt>
      <trkpt lat="-8.740043" lon="122.291474"><ele>84.5</ele></trkpt>
      <trkpt lat="-8.740209" lon="122.292547"><ele>87.9</ele></trkpt>
      <trkpt lat="-8.740347" lon="122.292859"><ele>87.4</ele></trkpt>
      <trkpt lat="-8.740942" lon="122.293575"><ele>91.7</ele></trkpt>
      <trkpt lat="-8.741599" lon="122.294932"><ele>82.8</ele></trkpt>
      <trkpt lat="-8.742069" lon="122.295650"><ele>74.8</ele></trkpt>
      <trkpt lat="-8.743203" lon="122.296968"><ele>62.0</ele></trkpt>
      <trkpt lat="-8.743170" lon="122.297448"><ele>61.4</ele></trkpt>
      <trkpt lat="-8.743016" lon="122.297855"><ele>59.8</ele></trkpt>
      <trkpt lat="-8.743612" lon="122.298169"><ele>60.6</ele></trkpt>
      <trkpt lat="-8.746350" lon="122.296860"><ele>0.9</ele></trkpt>
      <trkpt lat="-8.743612" lon="122.298169"><ele>60.6</ele></trkpt>
      <trkpt lat="-8.743903" lon="122.299400"><ele>48.7</ele></trkpt>
      <trkpt lat="-8.744263" lon="122.299634"><ele>47.2</ele></trkpt>
      <trkpt lat="-8.744142" lon="122.300182"><ele>36.5</ele></trkpt>
      <trkpt lat="-8.744358" lon="122.300941"><ele>24.9</ele></trkpt>
      <trkpt lat="-8.744616" lon="122.301296"><ele>17.9</ele></trkpt>
      <trkpt lat="-8.744602" lon="122.301579"><ele>14.0</ele></trkpt>
      <trkpt lat="-8.743768" lon="122.302841"><ele>15.3</ele></trkpt>
      <trkpt lat="-8.743124" lon="122.303416"><ele>21.6</ele></trkpt>
      <trkpt lat="-8.741630" lon="122.305803"><ele>16.2</ele></trkpt>
      <trkpt lat="-8.741061" lon="122.307052"><ele>18.5</ele></trkpt>
      <trkpt lat="-8.741069" lon="122.307926"><ele>15.5</ele></trkpt>
      <trkpt lat="-8.740844" lon="122.308855"><ele>19.8</ele></trkpt>
      <trkpt lat="-8.740751" lon="122.310141"><ele>15.8</ele></trkpt>
      <trkpt lat="-8.740285" lon="122.309983"><ele>28.0</ele></trkpt>
      <trkpt lat="-8.739969" lon="122.310189"><ele>33.4</ele></trkpt>
      <trkpt lat="-8.739884" lon="122.310383"><ele>33.8</ele></trkpt>
      <trkpt lat="-8.739919" lon="122.310775"><ele>35.4</ele></trkpt>
      <trkpt lat="-8.739425" lon="122.311950"><ele>54.7</ele></trkpt>
      <trkpt lat="-8.738922" lon="122.312384"><ele>74.0</ele></trkpt>
      <trkpt lat="-8.738729" lon="122.312726"><ele>80.0</ele></trkpt>
      <trkpt lat="-8.738676" lon="122.313076"><ele>80.4</ele></trkpt>
      <trkpt lat="-8.738542" lon="122.313057"><ele>83.7</ele></trkpt>
      <trkpt lat="-8.738184" lon="122.312690"><ele>95.8</ele></trkpt>
      <trkpt lat="-8.737994" lon="122.312062"><ele>96.6</ele></trkpt>
      <trkpt lat="-8.737580" lon="122.312104"><ele>105.3</ele></trkpt>
      <trkpt lat="-8.737034" lon="122.312371"><ele>121.2</ele></trkpt>
      <trkpt lat="-8.736072" lon="122.312310"><ele>127.6</ele></trkpt>
      <trkpt lat="-8.735320" lon="122.312121"><ele>131.8</ele></trkpt>
      <trkpt lat="-8.734833" lon="122.311488"><ele>127.6</ele></trkpt>
      <trkpt lat="-8.734121" lon="122.311304"><ele>137.5</ele></trkpt>
      <trkpt lat="-8.733535" lon="122.311321"><ele>140.8</ele></trkpt>
      <trkpt lat="-8.733097" lon="122.311437"><ele>147.7</ele></trkpt>
      <trkpt lat="-8.732588" lon="122.311419"><ele>155.7</ele></trkpt>
      <trkpt lat="-8.731629" lon="122.311840"><ele>172.4</ele></trkpt>
      <trkpt lat="-8.731514" lon="122.312132"><ele>175.4</ele></trkpt>
      <trkpt lat="-8.731531" lon="122.312460"><ele>171.4</ele></trkpt>
      <trkpt lat="-8.732065" lon="122.313682"><ele>149.8</ele></trkpt>
      <trkpt lat="-8.731914" lon="122.314307"><ele>150.1</ele></trkpt>
      <trkpt lat="-8.731271" lon="122.314213"><ele>148.2</ele></trkpt>
      <trkpt lat="-8.731010" lon="122.314082"><ele>141.7</ele></trkpt>
      <trkpt lat="-8.730774" lon="122.313577"><ele>141.0</ele></trkpt>
      <trkpt lat="-8.730578" lon="122.313311"><ele>144.6</ele></trkpt>
      <trkpt lat="-8.730467" lon="122.313290"><ele>144.6</ele></trkpt>
      <trkpt lat="-8.729934" lon="122.314071"><ele>143.2</ele></trkpt>
      <trkpt lat="-8.730159" lon="122.314998"><ele>135.8</ele></trkpt>
      <trkpt lat="-8.730124" lon="122.315233"><ele>137.7</ele></trkpt>
      <trkpt lat="-8.729273" lon="122.314865"><ele>158.2</ele></trkpt>
      <trkpt lat="-8.728505" lon="122.314769"><ele>173.1</ele></trkpt>
      <trkpt lat="-8.728891" lon="122.315328"><ele>154.2</ele></trkpt>
      <trkpt lat="-8.728973" lon="122.315619"><ele>147.5</ele></trkpt>
      <trkpt lat="-8.728615" lon="122.316579"><ele>153.4</ele></trkpt>
      <trkpt lat="-8.728673" lon="122.316705"><ele>150.0</ele></trkpt>
      <trkpt lat="-8.729080" lon="122.317052"><ele>134.1</ele></trkpt>
      <trkpt lat="-8.729127" lon="122.317216"><ele>133.4</ele></trkpt>
      <trkpt lat="-8.728873" lon="122.317619"><ele>146.5</ele></trkpt>
      <trkpt lat="-8.728824" lon="122.318264"><ele>138.2</ele></trkpt>
      <trkpt lat="-8.728547" lon="122.318430"><ele>141.1</ele></trkpt>
      <trkpt lat="-8.728397" lon="122.318411"><ele>142.3</ele></trkpt>
      <trkpt lat="-8.728207" lon="122.318202"><ele>145.6</ele></trkpt>
      <trkpt lat="-8.727934" lon="122.318234"><ele>146.3</ele></trkpt>
      <trkpt lat="-8.727849" lon="122.318327"><ele>146.5</ele></trkpt>
      <trkpt lat="-8.728095" lon="122.318747"><ele>149.9</ele></trkpt>
      <trkpt lat="-8.728952" lon="122.319519"><ele>161.0</ele></trkpt>
      <trkpt lat="-8.728351" lon="122.319459"><ele>165.1</ele></trkpt>
      <trkpt lat="-8.727613" lon="122.319098"><ele>176.8</ele></trkpt>
      <trkpt lat="-8.727343" lon="122.319038"><ele>180.3</ele></trkpt>
      <trkpt lat="-8.726060" lon="122.318920"><ele>205.9</ele></trkpt>
      <trkpt lat="-8.725805" lon="122.318984"><ele>211.8</ele></trkpt>
      <trkpt lat="-8.725615" lon="122.319277"><ele>215.6</ele></trkpt>
      <trkpt lat="-8.725273" lon="122.319496"><ele>220.6</ele></trkpt>
      <trkpt lat="-8.724609" lon="122.319443"><ele>222.0</ele></trkpt>
      <trkpt lat="-8.724523" lon="122.319703"><ele>211.8</ele></trkpt>
      <trkpt lat="-8.724626" lon="122.320466"><ele>210.4</ele></trkpt>
      <trkpt lat="-8.724865" lon="122.320977"><ele>218.6</ele></trkpt>
      <trkpt lat="-8.725182" lon="122.321319"><ele>233.0</ele></trkpt>
      <trkpt lat="-8.725481" lon="122.321342"><ele>234.3</ele></trkpt>
      <trkpt lat="-8.725856" lon="122.321166"><ele>228.9</ele></trkpt>
      <trkpt lat="-8.726167" lon="122.320903"><ele>226.3</ele></trkpt>
      <trkpt lat="-8.726312" lon="122.320576"><ele>214.2</ele></trkpt>
      <trkpt lat="-8.726418" lon="122.320562"><ele>211.0</ele></trkpt>
      <trkpt lat="-8.726254" lon="122.321080"><ele>229.4</ele></trkpt>
      <trkpt lat="-8.725960" lon="122.321499"><ele>241.6</ele></trkpt>
      <trkpt lat="-8.725823" lon="122.321560"><ele>245.2</ele></trkpt>
      <trkpt lat="-8.724900" lon="122.321619"><ele>252.8</ele></trkpt>
      <trkpt lat="-8.723480" lon="122.321514"><ele>282.1</ele></trkpt>
      <trkpt lat="-8.722630" lon="122.322102"><ele>303.7</ele></trkpt>
      <trkpt lat="-8.722112" lon="122.322249"><ele>319.8</ele></trkpt>
      <trkpt lat="-8.721911" lon="122.322094"><ele>318.1</ele></trkpt>
      <trkpt lat="-8.721748" lon="122.322128"><ele>322.7</ele></trkpt>
      <trkpt lat="-8.721223" lon="122.322498"><ele>334.5</ele></trkpt>
      <trkpt lat="-8.720883" lon="122.322996"><ele>346.0</ele></trkpt>
      <trkpt lat="-8.720389" lon="122.323380"><ele>358.1</ele></trkpt>
      <trkpt lat="-8.719298" lon="122.323638"><ele>368.3</ele></trkpt>
      <trkpt lat="-8.718756" lon="122.323551"><ele>369.6</ele></trkpt>
      <trkpt lat="-8.718286" lon="122.323202"><ele>369.0</ele></trkpt>
      <trkpt lat="-8.717530" lon="122.322283"><ele>389.9</ele></trkpt>
      <trkpt lat="-8.716687" lon="122.322029"><ele>399.1</ele></trkpt>
      <trkpt lat="-8.716319" lon="122.321832"><ele>407.1</ele></trkpt>
      <trkpt lat="-8.715179" lon="122.321598"><ele>399.0</ele></trkpt>
      <trkpt lat="-8.714856" lon="122.321596"><ele>405.4</ele></trkpt>
      <trkpt lat="-8.714530" lon="122.321895"><ele>414.1</ele></trkpt>
      <trkpt lat="-8.713830" lon="122.321616"><ele>399.4</ele></trkpt>
      <trkpt lat="-8.712199" lon="122.321783"><ele>407.2</ele></trkpt>
      <trkpt lat="-8.711770" lon="122.321111"><ele>411.9</ele></trkpt>
      <trkpt lat="-8.711049" lon="122.320751"><ele>415.1</ele></trkpt>
      <trkpt lat="-8.710343" lon="122.320668"><ele>423.1</ele></trkpt>
      <trkpt lat="-8.709960" lon="122.320256"><ele>427.3</ele></trkpt>
      <trkpt lat="-8.709763" lon="122.319606"><ele>427.5</ele></trkpt>
      <trkpt lat="-8.709898" lon="122.318765"><ele>421.2</ele></trkpt>
      <trkpt lat="-8.709578" lon="122.317415"><ele>440.2</ele></trkpt>
      <trkpt lat="-8.709559" lon="122.316620"><ele>432.3</ele></trkpt>
      <trkpt lat="-8.709017" lon="122.315915"><ele>434.7</ele></trkpt>
      <trkpt lat="-8.708635" lon="122.315081"><ele>439.6</ele></trkpt>
      <trkpt lat="-8.708031" lon="122.315162"><ele>465.2</ele></trkpt>
      <trkpt lat="-8.707577" lon="122.315381"><ele>481.7</ele></trkpt>
      <trkpt lat="-8.706887" lon="122.314362"><ele>505.7</ele></trkpt>
      <trkpt lat="-8.706453" lon="122.314178"><ele>505.9</ele></trkpt>
      <trkpt lat="-8.706200" lon="122.313764"><ele>493.1</ele></trkpt>
      <trkpt lat="-8.705979" lon="122.313868"><ele>492.9</ele></trkpt>
      <trkpt lat="-8.705562" lon="122.313810"><ele>491.7</ele></trkpt>
      <trkpt lat="-8.705346" lon="122.313363"><ele>479.6</ele></trkpt>
      <trkpt lat="-8.704876" lon="122.313649"><ele>484.4</ele></trkpt>
      <trkpt lat="-8.704424" lon="122.314126"><ele>484.6</ele></trkpt>
      <trkpt lat="-8.703995" lon="122.314302"><ele>476.5</ele></trkpt>
      <trkpt lat="-8.703687" lon="122.314301"><ele>472.0</ele></trkpt>
      <trkpt lat="-8.703136" lon="122.313933"><ele>463.0</ele></trkpt>
      <trkpt lat="-8.702799" lon="122.313476"><ele>448.4</ele></trkpt>
      <trkpt lat="-8.702439" lon="122.313183"><ele>447.9</ele></trkpt>
      <trkpt lat="-8.701505" lon="122.313145"><ele>438.4</ele></trkpt>
      <trkpt lat="-8.700748" lon="122.312709"><ele>430.6</ele></trkpt>
      <trkpt lat="-8.700086" lon="122.312757"><ele>430.3</ele></trkpt>
      <trkpt lat="-8.699719" lon="122.312650"><ele>430.0</ele></trkpt>
      <trkpt lat="-8.698606" lon="122.311475"><ele>427.8</ele></trkpt>
      <trkpt lat="-8.697815" lon="122.311258"><ele>419.5</ele></trkpt>
      <trkpt lat="-8.697294" lon="122.310617"><ele>398.5</ele></trkpt>
      <trkpt lat="-8.698000" lon="122.313000"><ele>452.8</ele></trkpt>
    </trkseg>
  </trk>
</gpx>
